{"version": 0.6, "generator": "Overpass API 0.7.62.1 084b4234", "osm3s": {"timestamp_osm_base": "2024-10-30T21:42:16Z", "copyright": "The data included in this document is from www.openstreetmap.org. The data is made available under ODbL."}, "elements": [{"type": "node", "id": 355955591, "lat": 32.5855757, "lon": -117.0924019}, {"type": "node", "id": 355972089, "lat": 32.5855754, "lon": -117.092373}, {"type": "node", "id": 355988233, "lat": 32.585574, "lon": -117.0923221}, {"type": "node", "id": 356003728, "lat": 32.5855837, "lon": -117.0923217}, {"type": "node", "id": 356020477, "lat": 32.5856091, "lon": -117.0923198}, {"type": "node", "id": 356035956, "lat": 32.5853626, "lon": -117.0923502}, {"type": "node", "id": 356047511, "lat": 32.5856093, "lon": -117.0923197}, {"type": "node", "id": 356053187, "lat": 32.5855343, "lon": -117.0923483}, {"type": "node", "id": 356059505, "lat": 32.5856106, "lon": -117.0921342}, {"type": "node", "id": 356065335, "lat": 32.5855347, "lon": -117.0924024}, {"type": "node", "id": 356090761, "lat": 32.8033324, "lon": -117.0076187}, {"type": "node", "id": 356119519, "lat": 32.8031622, "lon": -117.0076567}, {"type": "node", "id": 356135771, "lat": 32.8033894, "lon": -117.0079807}, {"type": "node", "id": 356167757, "lat": 32.5847458, "lon": -117.0612512}, {"type": "node", "id": 356177675, "lat": 32.5846371, "lon": -117.0612502}, {"type": "node", "id": 356191567, "lat": 32.585, "lon": -117.0614869}, {"type": "node", "id": 356206500, "lat": 32.5850034, "lon": -117.0612535}, {"type": "node", "id": 356219280, "lat": 32.5847442, "lon": -117.0614967}, {"type": "node", "id": 356226328, "lat": 32.5849998, "lon": -117.0614941}, {"type": "node", "id": 356236072, "lat": 32.5846393, "lon": -117.0614836}, {"type": "node", "id": 356259903, "lat": 32.5846394, "lon": -117.0614977}, {"type": "node", "id": 356331390, "lat": 32.8008295, "lon": -117.0126494}, {"type": "node", "id": 356344270, "lat": 32.7857043, "lon": -117.0982078}, {"type": "node", "id": 356350157, "lat": 32.8007713, "lon": -117.0124911}, {"type": "node", "id": 356353037, "lat": 32.8009974, "lon": -117.0125993}, {"type": "node", "id": 356367850, "lat": 32.8007683, "lon": -117.0124335}, {"type": "node", "id": 356373357, "lat": 32.8009385, "lon": -117.0126037}, {"type": "node", "id": 356386810, "lat": 32.7855711, "lon": -117.0982092}, {"type": "node", "id": 356387013, "lat": 32.8007036, "lon": -117.0126545}, {"type": "node", "id": 356409364, "lat": 32.8006952, "lon": -117.0124968}, {"type": "node", "id": 356424882, "lat": 32.8009878, "lon": -117.0124171}, {"type": "node", "id": 356435007, "lat": 32.800753, "lon": -117.0127167}, {"type": "node", "id": 356435758, "lat": 32.785569, "lon": -117.0979405}, {"type": "node", "id": 356454111, "lat": 32.8007495, "lon": -117.012651}, {"type": "node", "id": 356466726, "lat": 32.7857022, "lon": -117.097939}, {"type": "node", "id": 356479127, "lat": 32.8008328, "lon": -117.0127107}, {"type": "node", "id": 356489231, "lat": 32.8009405, "lon": -117.0126411}, {"type": "node", "id": 595968777, "lat": 32.8382142, "lon": -116.7780211}, {"type": "node", "id": 596036645, "lat": 32.8519078, "lon": -116.9316201, "tags": {"entrance": "main"}}, {"type": "node", "id": 596113023, "lat": 32.79229, "lon": -117.080566, "tags": {"addr:city": "San Diego", "addr:country": "US", "addr:housenumber": "5197", "addr:postcode": "92120", "addr:street": "Waring Road", "air_conditioning": "yes", "amenity": "bank", "atm": "yes", "brand": "U.S. Bank", "brand:wikidata": "Q739084", "drive_through": "yes", "name": "U.S. Bank", "source": "SanGIS Addresses Public Domain (http://www.sangis.org/)", "website": "https://www.usbank.com/"}}, {"type": "node", "id": 596197681, "lat": 32.8442142, "lon": -116.9842409, "tags": {"addr:city": "Santee", "addr:country": "US", "addr:housenumber": "286", "addr:postcode": "92071", "addr:street": "Town Center Parkway", "amenity": "bank", "atm": "yes", "brand": "San Diego County Credit Union", "brand:wikidata": "Q7413628", "name": "San Diego County Credit Union", "opening_hours": "Mo-Th 09:00-17:00; Fr 09:00-18:00; Sa 09:00-16:00", "short_name": "SDCCU", "source": "SanGIS Addresses Public Domain (http://www.sangis.org/)"}}, {"type": "node", "id": 596451342, "lat": 32.555342, "lon": -117.052779, "tags": {"addr:city": "San Ysidro", "addr:country": "US", "addr:housenumber": "418", "addr:postcode": "92173", "addr:street": "West San Ysidro Boulevard", "amenity": "bank", "name": "Pacific Western Bank", "source": "SanGIS Addresses Public Domain (http://www.sangis.org/)"}}, {"type": "node", "id": 596470551, "lat": 32.641917, "lon": -117.078707, "tags": {"addr:city": "Chula Vista", "addr:country": "US", "addr:housenumber": "275", "addr:postcode": "91910", "addr:street": "F Street", "amenity": "bank", "atm": "yes", "brand": "Banner Bank", "brand:wikidata": "Q4856910", "name": "Banner Bank", "source": "SanGIS Addresses Public Domain (http://www.sangis.org/)"}}, {"type": "node", "id": 596536845, "lat": 32.7750681, "lon": -117.0164504}, {"type": "node", "id": 596579523, "lat": 32.791385, "lon": -117.0972325, "tags": {"addr:city": "San Diego", "addr:country": "US", "addr:housenumber": "6501", "addr:postcode": "92120", "addr:state": "CA", "addr:street": "Mission Gorge Road", "amenity": "bank", "atm": "yes", "brand": "Bank of America", "brand:wikidata": "Q487907", "check_date": "2023-10-07", "name": "Bank of America", "source": "SanGIS Addresses Public Domain (http://www.sangis.org/)", "website": "https://locators.bankofamerica.com/ca/sandiego/financial-centers-san-diego-8327.html"}}, {"type": "node", "id": 596595262, "lat": 32.7471543, "lon": -116.9842442, "tags": {"addr:city": "Spring Valley", "addr:country": "US", "addr:postcode": "91977", "addr:state": "CA", "addr:street": "Campo Road", "amenity": "bank", "brand": "U.S. Bank", "brand:wikidata": "Q739084", "name": "U.S. Bank", "source": "SanGIS Addresses Public Domain (http://www.sangis.org/);SanGIS Business Sites Public Domain (http://www.sangis.org/)"}}, {"type": "node", "id": 596595303, "lat": 32.8009947, "lon": -117.0125469, "tags": {"entrance": "main"}}, {"type": "node", "id": 596683010, "lat": 32.7890789, "lon": -117.0973594, "tags": {"addr:city": "San Diego", "addr:country": "US", "addr:housenumber": "6313", "addr:postcode": "92120", "addr:street": "Mission Gorge Road", "amenity": "bank", "name": "California Bank & Trust", "source": "SanGIS Addresses Public Domain (http://www.sangis.org/)"}}, {"type": "node", "id": 596766604, "lat": 32.7952167, "lon": -116.965132, "tags": {"addr:city": "El Cajon", "addr:country": "US", "addr:housenumber": "312", "addr:postcode": "92020", "addr:street": "West Main Street", "amenity": "bank", "atm": "yes", "brand": "San Diego County Credit Union", "brand:wikidata": "Q7413628", "name": "San Diego County Credit Union", "opening_hours": "Mo-Th 09:00-17:00; Fr 09:00-18:00; Sa 09:00-16:00", "short_name": "SDCCU", "source": "SanGIS Addresses Public Domain (http://www.sangis.org/)"}}, {"type": "node", "id": 596788333, "lat": 32.676772, "lon": -117.0954468, "tags": {"addr:city": "National City", "addr:country": "US", "addr:housenumber": "1130", "addr:postcode": "91950", "addr:street": "East Plaza Boulevard", "amenity": "bank", "atm": "yes", "brand": "Chase", "brand:wikidata": "Q524629", "check_date": "2024-09-17", "check_date:opening_hours": "2024-09-17", "drive_through": "yes", "name": "Chase", "opening_hours": "Mo-Fr 09:00-17:00; Sa 09:00-14:00; Su closed", "phone": "+1 619-474-2262", "source": "SanGIS Addresses Public Domain (http://www.sangis.org/)", "website": "https://locator.chase.com/ca/national-city/1130-e-plaza-blvd"}}, {"type": "node", "id": 596815677, "lat": 32.8073303, "lon": -116.973643, "tags": {"addr:city": "El Cajon", "addr:housenumber": "898", "addr:postcode": "92020", "addr:state": "CA", "addr:street": "Jackman Street", "amenity": "bank", "atm": "yes", "brand": "California Coast Credit Union", "brand:wikidata": "Q25025281", "name": "California Coast Credit Union", "source": "SanGIS Addresses Public Domain (http://www.sangis.org/)", "website": "https://www.calcoastcu.org/branches/el-cajon/", "wheelchair": "yes"}}, {"type": "node", "id": 596862631, "lat": 32.6347386, "lon": -117.0777439, "tags": {"addr:city": "Chula Vista", "addr:country": "US", "addr:housenumber": "303", "addr:postcode": "91910", "addr:street": "H Street", "amenity": "bank", "brand": "San Diego County Credit Union", "brand:wikidata": "Q7413628", "name": "San Diego County Credit Union", "opening_hours": "Mo-Th 09:00-17:00; Fr 09:00-18:00; Sa 09:00-16:00", "short_name": "SDCCU", "source": "SanGIS Addresses Public Domain (http://www.sangis.org/)"}}, {"type": "node", "id": 596946071, "lat": 32.7478281, "lon": -116.9615952}, {"type": "node", "id": 596985688, "lat": 32.5853622, "lon": -117.0921345}, {"type": "node", "id": 597065723, "lat": 32.6409334, "lon": -117.0514388}, {"type": "node", "id": 597080849, "lat": 32.8019964, "lon": -116.9359818}, {"type": "node", "id": 597145447, "lat": 32.5523747, "lon": -117.0425764, "tags": {"addr:city": "San Ysidro", "addr:country": "US", "addr:housenumber": "201", "addr:postcode": "92173", "addr:street": "East San Ysidro Boulevard", "amenity": "bank", "atm": "yes", "brand": "Bank of America", "brand:wikidata": "Q487907", "drive_through": "yes", "name": "Bank of America", "source": "SanGIS Addresses Public Domain (http://www.sangis.org/)", "website": "https://locators.bankofamerica.com/ca/sanysidro/financial-centers-san-ysidro-11471.html"}}, {"type": "node", "id": 597180283, "lat": 32.6399724, "lon": -117.0502399}, {"type": "node", "id": 726925264, "lat": 32.7803695, "lon": -117.0110468}, {"type": "node", "id": 726925265, "lat": 32.7806378, "lon": -117.0108939}, {"type": "node", "id": 726925266, "lat": 32.7805634, "lon": -117.0106954}, {"type": "node", "id": 726925267, "lat": 32.7802838, "lon": -117.0108376}, {"type": "node", "id": 726926556, "lat": 32.7769443, "lon": -117.0087079}, {"type": "node", "id": 726926558, "lat": 32.7768127, "lon": -117.0083761}, {"type": "node", "id": 726926559, "lat": 32.7766176, "lon": -117.0084856}, {"type": "node", "id": 726926560, "lat": 32.7766786, "lon": -117.0086392}, {"type": "node", "id": 726926561, "lat": 32.7768518, "lon": -117.0087937}, {"type": "node", "id": 726926563, "lat": 32.7768408, "lon": -117.008766}, {"type": "node", "id": 726926564, "lat": 32.7765946, "lon": -117.0105664}, {"type": "node", "id": 726926565, "lat": 32.7765078, "lon": -117.0103454}, {"type": "node", "id": 726926566, "lat": 32.7762269, "lon": -117.0105014}, {"type": "node", "id": 726926567, "lat": 32.7763174, "lon": -117.0107319}, {"type": "node", "id": 1110961056, "lat": 32.7477215, "lon": -116.9279357}, {"type": "node", "id": 1110961110, "lat": 32.7477976, "lon": -116.9276789}, {"type": "node", "id": 1110961114, "lat": 32.7475989, "lon": -116.9276523}, {"type": "node", "id": 1110961117, "lat": 32.7477392, "lon": -116.9276782}, {"type": "node", "id": 1110961123, "lat": 32.7475949, "lon": -116.9279553}, {"type": "node", "id": 1110961129, "lat": 32.7477395, "lon": -116.9276542}, {"type": "node", "id": 1110961135, "lat": 32.7477942, "lon": -116.9279367}, {"type": "node", "id": 1110961140, "lat": 32.7477212, "lon": -116.927957}, {"type": "node", "id": 1122583623, "lat": 32.8016695, "lon": -117.0034684}, {"type": "node", "id": 1122583636, "lat": 32.8019331, "lon": -117.0033765}, {"type": "node", "id": 1122583652, "lat": 32.8016159, "lon": -117.0032406}, {"type": "node", "id": 1122583710, "lat": 32.8018766, "lon": -117.00315}, {"type": "node", "id": 1162854528, "lat": 32.6608813, "lon": -117.0319757}, {"type": "node", "id": 1162854573, "lat": 32.6606013, "lon": -117.0319328}, {"type": "node", "id": 1162854695, "lat": 32.6605855, "lon": -117.0320857}, {"type": "node", "id": 1162854890, "lat": 32.6606329, "lon": -117.0318336}, {"type": "node", "id": 1162854940, "lat": 32.6607888, "lon": -117.0322091}, {"type": "node", "id": 1162855126, "lat": 32.6606375, "lon": -117.0319543}, {"type": "node", "id": 1211560454, "lat": 32.8379053, "lon": -116.7778709}, {"type": "node", "id": 1211560520, "lat": 32.8379017, "lon": -116.7777707}, {"type": "node", "id": 1211560586, "lat": 32.8382047, "lon": -116.7777553}, {"type": "node", "id": 1211560605, "lat": 32.8379756, "lon": -116.7778674}, {"type": "node", "id": 1211560623, "lat": 32.8379815, "lon": -116.7780329}, {"type": "node", "id": 1240449973, "lat": 32.6411334, "lon": -117.0511836}, {"type": "node", "id": 1240449977, "lat": 32.640919, "lon": -117.0512138}, {"type": "node", "id": 1240449982, "lat": 32.6411505, "lon": -117.051434}, {"type": "node", "id": 1240449985, "lat": 32.6400686, "lon": -117.0504143}, {"type": "node", "id": 1240449993, "lat": 32.6402422, "lon": -117.0502794}, {"type": "node", "id": 1240450064, "lat": 32.6401461, "lon": -117.0501049}, {"type": "node", "id": 1254994947, "lat": 32.7406472, "lon": -116.9403708}, {"type": "node", "id": 1254994996, "lat": 32.7410592, "lon": -116.9390462}, {"type": "node", "id": 1254995051, "lat": 32.7404918, "lon": -116.9402577}, {"type": "node", "id": 1254995053, "lat": 32.7403522, "lon": -116.9405288}, {"type": "node", "id": 1254995242, "lat": 32.7412107, "lon": -116.9391603}, {"type": "node", "id": 1254995411, "lat": 32.7405075, "lon": -116.9406418}, {"type": "node", "id": 1254995447, "lat": 32.7410964, "lon": -116.9393748}, {"type": "node", "id": 1254995522, "lat": 32.7409449, "lon": -116.9392607}, {"type": "node", "id": 1255018477, "lat": 32.7440985, "lon": -116.9324308}, {"type": "node", "id": 1255018566, "lat": 32.7441413, "lon": -116.932294}, {"type": "node", "id": 1255018740, "lat": 32.7441165, "lon": -116.932176}, {"type": "node", "id": 1255018979, "lat": 32.7443737, "lon": -116.9322994}, {"type": "node", "id": 1255019011, "lat": 32.744297, "lon": -116.9325274}, {"type": "node", "id": 1255019033, "lat": 32.7440872, "lon": -116.9322592}, {"type": "node", "id": 1345509053, "lat": 32.8519947, "lon": -116.9316196}, {"type": "node", "id": 1345509079, "lat": 32.8520282, "lon": -116.931522}, {"type": "node", "id": 1345509081, "lat": 32.8520035, "lon": -116.9315222}, {"type": "node", "id": 1345509082, "lat": 32.8517802, "lon": -116.9313531}, {"type": "node", "id": 1345509083, "lat": 32.8517813, "lon": -116.9316208}, {"type": "node", "id": 1345509085, "lat": 32.8520028, "lon": -116.9313518}, {"type": "node", "id": 1345509086, "lat": 32.8519946, "lon": -116.9315956}, {"type": "node", "id": 1345509087, "lat": 32.8520285, "lon": -116.9315954}, {"type": "node", "id": 1566758164, "lat": 32.5450805, "lon": -117.0424547}, {"type": "node", "id": 1566758165, "lat": 32.5450917, "lon": -117.0421625}, {"type": "node", "id": 1566758166, "lat": 32.5452392, "lon": -117.0421659}, {"type": "node", "id": 1566758167, "lat": 32.545154, "lon": -117.0424556}, {"type": "node", "id": 1763830060, "lat": 32.7814486, "lon": -117.0328477}, {"type": "node", "id": 1763830061, "lat": 32.7814621, "lon": -117.0326492}, {"type": "node", "id": 1763830062, "lat": 32.7812894, "lon": -117.0326241}, {"type": "node", "id": 1763830063, "lat": 32.7812683, "lon": -117.0328226}, {"type": "node", "id": 1946833130, "lat": 32.747989, "lon": -116.9614852}, {"type": "node", "id": 1946833131, "lat": 32.7480637, "lon": -116.9613769}, {"type": "node", "id": 1946833134, "lat": 32.7477645, "lon": -116.9612071}, {"type": "node", "id": 1946833138, "lat": 32.7479668, "lon": -116.9613994}, {"type": "node", "id": 1946833143, "lat": 32.7480005, "lon": -116.9615553}, {"type": "node", "id": 1946833147, "lat": 32.7480781, "lon": -116.9614646}, {"type": "node", "id": 1946833156, "lat": 32.747929, "lon": -116.961169}, {"type": "node", "id": 2009843960, "lat": 32.807958, "lon": -116.9588584, "tags": {"amenity": "bank", "atm": "yes", "name": "Opus bank"}}, {"type": "node", "id": 2017149829, "lat": 32.8071244, "lon": -116.967136, "tags": {"amenity": "bank", "atm": "yes", "brand": "Wells Fargo", "brand:wikidata": "Q744149", "name": "Wells Fargo", "source": "survey"}}, {"type": "node", "id": 2232296052, "lat": 32.8032123, "lon": -117.0080202}, {"type": "node", "id": 2345203167, "lat": 32.8391083, "lon": -116.981206, "tags": {"addr:city": "Santee", "addr:housenumber": "9808", "addr:postcode": "92071", "addr:state": "CA", "addr:street": "Mission Gorge Road", "addr:unit": "Ste A", "amenity": "bank", "atm": "yes", "brand": "California Coast Credit Union", "brand:wikidata": "Q25025281", "drive_through": "yes", "name": "California Coast Credit Union", "opening_hours": "Mo-Th 09:00-17:00; Fr 09:00-18:00; Sa 09:00-14:00", "operator": "California Coast Credit Union", "website": "https://www.calcoastcu.org/branches/santee/"}}, {"type": "node", "id": 2345251817, "lat": 32.8389959, "lon": -116.9843191}, {"type": "node", "id": 2345251818, "lat": 32.8389968, "lon": -116.9841508}, {"type": "node", "id": 2345251819, "lat": 32.8390749, "lon": -116.9841514}, {"type": "node", "id": 2345251820, "lat": 32.839075, "lon": -116.9841287}, {"type": "node", "id": 2345251823, "lat": 32.8392517, "lon": -116.98413}, {"type": "node", "id": 2345251824, "lat": 32.8392516, "lon": -116.984156}, {"type": "node", "id": 2345251825, "lat": 32.8393136, "lon": -116.9841565}, {"type": "node", "id": 2345251826, "lat": 32.8393127, "lon": -116.9843215}, {"type": "node", "id": 2464535514, "lat": 32.8025095, "lon": -117.0453621, "tags": {"amenity": "bank", "atm": "yes", "brand": "Bank of America", "brand:wikidata": "Q487907", "name": "Bank of America", "website": "https://locators.bankofamerica.com/ca/sandiego/financial-centers-san-diego-8507.html"}}, {"type": "node", "id": 2906668773, "lat": 32.8389532, "lon": -116.9888914}, {"type": "node", "id": 2906668774, "lat": 32.8389865, "lon": -116.9889902}, {"type": "node", "id": 2906668775, "lat": 32.8390146, "lon": -116.9889617}, {"type": "node", "id": 2906668776, "lat": 32.839038, "lon": -116.9890599}, {"type": "node", "id": 2906668777, "lat": 32.8390667, "lon": -116.9890271}, {"type": "node", "id": 2906668778, "lat": 32.8391147, "lon": -116.9887013}, {"type": "node", "id": 2906668779, "lat": 32.8391223, "lon": -116.9890947}, {"type": "node", "id": 2906668780, "lat": 32.8391304, "lon": -116.9887006}, {"type": "node", "id": 2906668781, "lat": 32.8391872, "lon": -116.9890237}, {"type": "node", "id": 2906668782, "lat": 32.8392077, "lon": -116.9890529}, {"type": "node", "id": 2906668783, "lat": 32.8392392, "lon": -116.9889596}, {"type": "node", "id": 2906668784, "lat": 32.8392644, "lon": -116.9889902}, {"type": "node", "id": 2906668785, "lat": 32.8392872, "lon": -116.9888983}, {"type": "node", "id": 2906672919, "lat": 32.8382512, "lon": -116.9934353}, {"type": "node", "id": 2906672920, "lat": 32.8382505, "lon": -116.9938148, "tags": {"entrance": "main"}}, {"type": "node", "id": 2906672921, "lat": 32.8384758, "lon": -116.9938154}, {"type": "node", "id": 2906672922, "lat": 32.8384766, "lon": -116.9934359}, {"type": "node", "id": 2959010995, "lat": 32.6349389, "lon": -117.0782205, "tags": {"amenity": "bank"}}, {"type": "node", "id": 3016725048, "lat": 32.5449683, "lon": -117.0422991}, {"type": "node", "id": 3016725049, "lat": 32.5449691, "lon": -117.0422036}, {"type": "node", "id": 3016725052, "lat": 32.5449983, "lon": -117.0423488}, {"type": "node", "id": 3016725053, "lat": 32.5449987, "lon": -117.0422995}, {"type": "node", "id": 3016725054, "lat": 32.5449998, "lon": -117.042204}, {"type": "node", "id": 3016725055, "lat": 32.5450002, "lon": -117.0421614}, {"type": "node", "id": 3016725056, "lat": 32.5450814, "lon": -117.0423498}, {"type": "node", "id": 3016725057, "lat": 32.545092, "lon": -117.0421229}, {"type": "node", "id": 3016725058, "lat": 32.5451549, "lon": -117.0423505}, {"type": "node", "id": 3016725059, "lat": 32.5451579, "lon": -117.042165}, {"type": "node", "id": 3016725060, "lat": 32.5451583, "lon": -117.0421237}, {"type": "node", "id": 3016725063, "lat": 32.5452376, "lon": -117.0423515}, {"type": "node", "id": 3016767017, "lat": 32.545027, "lon": -117.0404413}, {"type": "node", "id": 3016767018, "lat": 32.5450273, "lon": -117.0403857}, {"type": "node", "id": 3016767019, "lat": 32.5450352, "lon": -117.0406365}, {"type": "node", "id": 3016767020, "lat": 32.5450365, "lon": -117.0404414}, {"type": "node", "id": 3016767028, "lat": 32.5450751, "lon": -117.0403962}, {"type": "node", "id": 3016767029, "lat": 32.5450752, "lon": -117.0403861}, {"type": "node", "id": 3016769738, "lat": 32.5452013, "lon": -117.040638}, {"type": "node", "id": 3016769739, "lat": 32.5452028, "lon": -117.0403973}, {"type": "node", "id": 3016784784, "lat": 32.5452017, "lon": -117.0405764}, {"type": "node", "id": 3016787488, "lat": 32.5450031, "lon": -117.0423488}, {"type": "node", "id": 3016790307, "lat": 32.5450809, "lon": -117.042402}, {"type": "node", "id": 3016790309, "lat": 32.5451545, "lon": -117.0424013}, {"type": "node", "id": 3160079287, "lat": 32.7606524, "lon": -117.068992, "tags": {"amenity": "bank", "brand": "Citibank", "brand:wikidata": "Q857063", "name": "Citibank", "short_name": "Citi"}}, {"type": "node", "id": 3160079288, "lat": 32.7609388, "lon": -117.0684616, "tags": {"amenity": "bank", "name": "Union Bank"}}, {"type": "node", "id": 3306705870, "lat": 32.7634267, "lon": -117.063133, "tags": {"amenity": "bank", "brand": "Wells Fargo", "brand:wikidata": "Q744149", "name": "Wells Fargo"}}, {"type": "node", "id": 3524713256, "lat": 32.8017158, "lon": -116.935978}, {"type": "node", "id": 3524713257, "lat": 32.8017142, "lon": -116.9361327}, {"type": "node", "id": 3524713259, "lat": 32.8018712, "lon": -116.9361566}, {"type": "node", "id": 3524713260, "lat": 32.8019947, "lon": -116.9361583}, {"type": "node", "id": 3732433681, "lat": 32.8018714, "lon": -116.9361349}, {"type": "node", "id": 3732433682, "lat": 32.8018167, "lon": -116.9361341}, {"type": "node", "id": 3803571962, "lat": 32.8066308, "lon": -116.9712338}, {"type": "node", "id": 3803571963, "lat": 32.8066312, "lon": -116.9715566}, {"type": "node", "id": 3803571964, "lat": 32.8068951, "lon": -116.9712334}, {"type": "node", "id": 3803571965, "lat": 32.8068955, "lon": -116.9715562}, {"type": "node", "id": 3803571968, "lat": 32.8079277, "lon": -116.9662496}, {"type": "node", "id": 3803571969, "lat": 32.80793, "lon": -116.9660121}, {"type": "node", "id": 3803571971, "lat": 32.8079954, "lon": -116.9669648}, {"type": "node", "id": 3803571972, "lat": 32.8079954, "lon": -116.967254}, {"type": "node", "id": 3803571973, "lat": 32.8080512, "lon": -116.967254}, {"type": "node", "id": 3803571974, "lat": 32.8080512, "lon": -116.9672815}, {"type": "node", "id": 3803571978, "lat": 32.8081366, "lon": -116.9662524}, {"type": "node", "id": 3803571979, "lat": 32.8081389, "lon": -116.966015}, {"type": "node", "id": 3803571980, "lat": 32.8081452, "lon": -116.9669648}, {"type": "node", "id": 3803571981, "lat": 32.8081452, "lon": -116.9672815}, {"type": "node", "id": 3979139115, "lat": 32.8081556, "lon": -116.9648861}, {"type": "node", "id": 3979139116, "lat": 32.8079927, "lon": -116.9648843}, {"type": "node", "id": 3979139117, "lat": 32.8079935, "lon": -116.9647767}, {"type": "node", "id": 3979139118, "lat": 32.8081564, "lon": -116.9647785}, {"type": "node", "id": 4046827642, "lat": 32.8015947, "lon": -117.0032722}, {"type": "node", "id": 4046827644, "lat": 32.801596, "lon": -117.0032912}, {"type": "node", "id": 4046827646, "lat": 32.8016007, "lon": -117.0032529}, {"type": "node", "id": 4046827650, "lat": 32.8016315, "lon": -117.0034421}, {"type": "node", "id": 4046827651, "lat": 32.8016383, "lon": -117.0034578}, {"type": "node", "id": 4046827654, "lat": 32.8016533, "lon": -117.0034681}, {"type": "node", "id": 4046827667, "lat": 32.8018899, "lon": -117.0031513}, {"type": "node", "id": 4046827668, "lat": 32.8019032, "lon": -117.0031605}, {"type": "node", "id": 4046827670, "lat": 32.8019087, "lon": -117.0031704}, {"type": "node", "id": 4046827674, "lat": 32.8019449, "lon": -117.0033649}, {"type": "node", "id": 4046827676, "lat": 32.8019496, "lon": -117.0033347}, {"type": "node", "id": 4046827677, "lat": 32.8019506, "lon": -117.0033504}, {"type": "node", "id": 4082250873, "lat": 32.6201699, "lon": -116.9619907}, {"type": "node", "id": 4082250874, "lat": 32.6202495, "lon": -116.9617683}, {"type": "node", "id": 4082250875, "lat": 32.620086, "lon": -116.9616934}, {"type": "node", "id": 4082250876, "lat": 32.620073, "lon": -116.9617335}, {"type": "node", "id": 4082250877, "lat": 32.6200546, "lon": -116.961725}, {"type": "node", "id": 4082250878, "lat": 32.6199944, "lon": -116.9619103}, {"type": "node", "id": 4082250879, "lat": 32.620224, "lon": -116.9618465}, {"type": "node", "id": 4082250880, "lat": 32.6201863, "lon": -116.9619401}, {"type": "node", "id": 4082250881, "lat": 32.6201701, "lon": -116.9619327}, {"type": "node", "id": 4082250882, "lat": 32.6202015, "lon": -116.9618361}, {"type": "node", "id": 4082250897, "lat": 32.6214812, "lon": -116.9612874}, {"type": "node", "id": 4082250898, "lat": 32.6215163, "lon": -116.9610922}, {"type": "node", "id": 4082250899, "lat": 32.6213003, "lon": -116.9610374}, {"type": "node", "id": 4082250900, "lat": 32.621296, "lon": -116.9610612}, {"type": "node", "id": 4082250901, "lat": 32.6212683, "lon": -116.9610542}, {"type": "node", "id": 4082250902, "lat": 32.6212547, "lon": -116.9611297}, {"type": "node", "id": 4082250903, "lat": 32.6212885, "lon": -116.9611382}, {"type": "node", "id": 4082250904, "lat": 32.6212713, "lon": -116.9612342}, {"type": "node", "id": 4229620941, "lat": 32.8031755, "lon": -117.0063907, "tags": {"addr:city": "San Diego", "addr:housenumber": "8898", "addr:postcode": "92119", "addr:state": "CA", "addr:street": "Navajo Road", "addr:unit": "A", "amenity": "bank", "atm": "yes", "brand": "Wells Fargo", "brand:wikidata": "Q744149", "name": "Wells Fargo"}}, {"type": "node", "id": 4299229362, "lat": 32.6066854, "lon": -117.077807, "tags": {"addr:city": "Chula Vista", "addr:housenumber": "555", "addr:postcode": "91911", "addr:state": "CA", "addr:street": "Oxford Street", "amenity": "bank", "atm": "yes", "drive_through": "yes", "name": "Mexican Union", "operator": "Green DOt"}}, {"type": "node", "id": 4679653588, "lat": 32.6612519, "lon": -117.0310451}, {"type": "node", "id": 4848240477, "lat": 32.6477567, "lon": -116.9657303}, {"type": "node", "id": 4848240478, "lat": 32.6477875, "lon": -116.9656083}, {"type": "node", "id": 4848240479, "lat": 32.6477696, "lon": -116.9656032}, {"type": "node", "id": 4848240480, "lat": 32.6477816, "lon": -116.9655585}, {"type": "node", "id": 4848240481, "lat": 32.6476361, "lon": -116.9655026}, {"type": "node", "id": 4848240482, "lat": 32.6476284, "lon": -116.9655493}, {"type": "node", "id": 4848240483, "lat": 32.6475873, "lon": -116.9655341}, {"type": "node", "id": 4848240484, "lat": 32.6475419, "lon": -116.9657059}, {"type": "node", "id": 4848240485, "lat": 32.6475796, "lon": -116.9657201}, {"type": "node", "id": 4848240486, "lat": 32.6475693, "lon": -116.9657567}, {"type": "node", "id": 4848240487, "lat": 32.6476891, "lon": -116.9657973}, {"type": "node", "id": 4848240488, "lat": 32.6476977, "lon": -116.9657567}, {"type": "node", "id": 4848240489, "lat": 32.6477259, "lon": -116.9657689}, {"type": "node", "id": 4848240490, "lat": 32.6477353, "lon": -116.9657242}, {"type": "node", "id": 5029544032, "lat": 32.7089147, "lon": -117.0853145, "tags": {"amenity": "bank", "brand": "Wells Fargo", "brand:wikidata": "Q744149", "name": "Wells Fargo"}}, {"type": "node", "id": 5269001684, "lat": 32.7685054, "lon": -117.0514027}, {"type": "node", "id": 5269001685, "lat": 32.7685089, "lon": -117.0511506}, {"type": "node", "id": 5269001686, "lat": 32.7684533, "lon": -117.0511486}, {"type": "node", "id": 5269001687, "lat": 32.768455, "lon": -117.0509748}, {"type": "node", "id": 5269001688, "lat": 32.7683696, "lon": -117.0509687}, {"type": "node", "id": 5269001689, "lat": 32.7683678, "lon": -117.0511455}, {"type": "node", "id": 5269001690, "lat": 32.7681602, "lon": -117.0511394}, {"type": "node", "id": 5269001691, "lat": 32.7681533, "lon": -117.0513427}, {"type": "node", "id": 5269001692, "lat": 32.7681918, "lon": -117.0513447}, {"type": "node", "id": 5269001693, "lat": 32.7681926, "lon": -117.0513945}, {"type": "node", "id": 5269001694, "lat": 32.7684429, "lon": -117.0509739}, {"type": "node", "id": 5308878469, "lat": 32.5859149, "lon": -117.090896, "tags": {"addr:city": "San Diego", "addr:housenumber": "555", "addr:postcode": "92154", "addr:state": "CA", "addr:street": "Saturn Blvd", "addr:unit": "Suite C", "amenity": "bank", "atm": "yes", "brand": "Navy Federal Credit Union", "brand:wikidata": "Q6982632", "drive_through": "no", "name": "Navy Federal Credit Union", "phone": "+1-888-842-6328", "website": "https://www.navyfederal.org/branches-atms/locations/usa/ca/san-diego/spc.html"}}, {"type": "node", "id": 5308878471, "lat": 32.5855765, "lon": -117.0894472, "tags": {"amenity": "bank", "brand": "Wells Fargo", "brand:wikidata": "Q744149", "name": "Wells Fargo"}}, {"type": "node", "id": 5557727735, "lat": 32.7480455, "lon": -116.9614721}, {"type": "node", "id": 5872892751, "lat": 32.6449795, "lon": -117.081056, "tags": {"addr:city": "Chula Vista", "addr:country": "US", "addr:housenumber": "295", "addr:postcode": "91910", "addr:state": "CA", "addr:street": "E Street", "amenity": "bank", "brand": "Bank of America", "brand:wikidata": "Q487907", "name": "Bank of America", "opening_hours": "Mo-Fr 09:00-18:00;Sa 09:00-14:00;Su closed", "phone": "+16194983114", "website": "https://locators.bankofamerica.com/ca/chulavista/financial-centers-chula-vista-7613.html"}}, {"type": "node", "id": 5893896258, "lat": 32.605233, "lon": -117.065463, "tags": {"amenity": "bank", "atm": "yes", "brand": "U.S. Bank", "brand:wikidata": "Q739084", "drive_through": "yes", "name": "U.S. Bank"}}, {"type": "node", "id": 6072229207, "lat": 32.6054961, "lon": -117.0800855, "tags": {"amenity": "bank", "atm": "yes", "brand": "Wells Fargo", "brand:wikidata": "Q744149", "level": "0", "name": "Wells Fargo", "opening_hours": "Mo-Fr 09:00-18:00; Sa 09:00-16:00; Su off"}}, {"type": "node", "id": 6191349545, "lat": 32.6240376, "lon": -117.0724071, "tags": {"amenity": "bank", "atm": "yes", "level": "0", "name": "Bank of America", "wheelchair": "yes"}}, {"type": "node", "id": 6355766026, "lat": 32.6295611, "lon": -116.9663109}, {"type": "node", "id": 6355766034, "lat": 32.6290811, "lon": -116.9651284, "tags": {"amenity": "bank", "atm": "yes", "brand": "Navy Federal Credit Union", "brand:wikidata": "Q6982632", "name": "Navy Federal Credit Union"}}, {"type": "node", "id": 6355775337, "lat": 32.6197441, "lon": -116.9611205, "tags": {"amenity": "bank", "atm": "yes", "brand": "U.S. Bank", "brand:wikidata": "Q739084", "name": "U.S. Bank"}}, {"type": "node", "id": 6389982127, "lat": 32.6491565, "lon": -116.9663901, "tags": {"amenity": "bank", "atm": "yes", "brand": "U.S. Bank", "brand:wikidata": "Q739084", "name": "U.S. Bank"}}, {"type": "node", "id": 6618538098, "lat": 32.6200293, "lon": -116.961803, "tags": {"entrance": "main"}}, {"type": "node", "id": 6828920453, "lat": 32.581807, "lon": -117.033244, "tags": {"amenity": "bank", "atm": "yes", "brand": "Wells Fargo", "brand:wikidata": "Q744149", "name": "Wells Fargo"}}, {"type": "node", "id": 6918530152, "lat": 32.6322801, "lon": -117.0861031}, {"type": "node", "id": 6918530153, "lat": 32.6324106, "lon": -117.085669}, {"type": "node", "id": 6918530154, "lat": 32.6322278, "lon": -117.0855893}, {"type": "node", "id": 6918530155, "lat": 32.632101, "lon": -117.0860426}, {"type": "node", "id": 6918530156, "lat": 32.6321441, "lon": -117.0860571, "tags": {"amenity": "atm"}}, {"type": "node", "id": 7078443276, "lat": 32.7858077, "lon": -116.9289138, "tags": {"addr:city": "El Cajon", "addr:housenumber": "780", "addr:postcode": "92019", "addr:street": "Jamacha Road", "amenity": "bank", "atm": "yes", "name": "MyPoint Credit Union", "name:-2019-09-30": "Point Loma Credit Union", "opening_hours": "Mo-Th 09:00-17:00; Fr 09:00-18:00; Sa 09:00-16:00", "operator": "MyPoint Credit Union", "website": "https://mypointcu.com/connect/locations/el-cajon"}}, {"type": "node", "id": 7095596330, "lat": 32.6283739, "lon": -117.0368835}, {"type": "node", "id": 7095596331, "lat": 32.6284325, "lon": -117.0368766}, {"type": "node", "id": 7095596332, "lat": 32.6284346, "lon": -117.0369014}, {"type": "node", "id": 7095596333, "lat": 32.628376, "lon": -117.0369084}, {"type": "node", "id": 7095596334, "lat": 32.6285007, "lon": -117.0370731}, {"type": "node", "id": 7095596335, "lat": 32.6284631, "lon": -117.0370775}, {"type": "node", "id": 7095596336, "lat": 32.6284688, "lon": -117.0371445}, {"type": "node", "id": 7095596337, "lat": 32.6284857, "lon": -117.0368953}, {"type": "node", "id": 7095596338, "lat": 32.6282862, "lon": -117.036919}, {"type": "node", "id": 7095596339, "lat": 32.6283069, "lon": -117.0371638}, {"type": "node", "id": 7142168723, "lat": 32.6613231, "lon": -117.030822}, {"type": "node", "id": 7142168724, "lat": 32.6610211, "lon": -117.0306864}, {"type": "node", "id": 7142168725, "lat": 32.6609769, "lon": -117.0308614}, {"type": "node", "id": 7142168726, "lat": 32.6609659, "lon": -117.0308527}, {"type": "node", "id": 7142168727, "lat": 32.6609401, "lon": -117.0309256}, {"type": "node", "id": 7397354275, "lat": 32.5605309, "lon": -117.0633107, "tags": {"addr:city": "San Ysidro", "addr:housenumber": "2036", "addr:postcode": "92173", "addr:state": "CA", "addr:street": "Dairy Mart Road", "addr:unit": "130", "amenity": "bank", "atm": "yes", "brand": "San Diego County Credit Union", "brand:wikidata": "Q7413628", "drive_through": "no", "name": "San Diego County Credit Union", "short_name": "SDCCU"}}, {"type": "node", "id": 7693311698, "lat": 32.6294314, "lon": -116.9661358}, {"type": "node", "id": 7693311699, "lat": 32.6292862, "lon": -116.9662991}, {"type": "node", "id": 7693311700, "lat": 32.6293926, "lon": -116.9664492}, {"type": "node", "id": 7693311701, "lat": 32.6294148, "lon": -116.9664531}, {"type": "node", "id": 8559212219, "lat": 32.7787959, "lon": -116.9576791}, {"type": "node", "id": 8559212220, "lat": 32.7787961, "lon": -116.9576019}, {"type": "node", "id": 8559212221, "lat": 32.7788961, "lon": -116.9576632}, {"type": "node", "id": 8559212222, "lat": 32.7788961, "lon": -116.9576109}, {"type": "node", "id": 8559212223, "lat": 32.77875, "lon": -116.957529}, {"type": "node", "id": 8559212224, "lat": 32.7788001, "lon": -116.9574491}, {"type": "node", "id": 8559212225, "lat": 32.778937, "lon": -116.9575834}, {"type": "node", "id": 8559212226, "lat": 32.7787499, "lon": -116.9576018}, {"type": "node", "id": 8559212228, "lat": 32.7789371, "lon": -116.9574492}, {"type": "node", "id": 8559212237, "lat": 32.7799232, "lon": -116.9575486}, {"type": "node", "id": 8559212238, "lat": 32.7798701, "lon": -116.9575486}, {"type": "node", "id": 8559212239, "lat": 32.7796464, "lon": -116.9573576}, {"type": "node", "id": 8559212240, "lat": 32.7799244, "lon": -116.9573556}, {"type": "node", "id": 8559212241, "lat": 32.7798698, "lon": -116.9576096}, {"type": "node", "id": 8559212242, "lat": 32.7796448, "lon": -116.9576076}, {"type": "node", "id": 8657989659, "lat": 32.8398295, "lon": -116.9869668}, {"type": "node", "id": 8657989660, "lat": 32.83965, "lon": -116.9869673}, {"type": "node", "id": 8657989661, "lat": 32.8396495, "lon": -116.9865592}, {"type": "node", "id": 8657989662, "lat": 32.8398287, "lon": -116.9865681}, {"type": "node", "id": 8657989671, "lat": 32.8384626, "lon": -116.9860127}, {"type": "node", "id": 8657989672, "lat": 32.8384643, "lon": -116.9859162}, {"type": "node", "id": 8657989673, "lat": 32.8384768, "lon": -116.9859032}, {"type": "node", "id": 8657989674, "lat": 32.8384802, "lon": -116.9857957}, {"type": "node", "id": 8657989675, "lat": 32.8381641, "lon": -116.9857918}, {"type": "node", "id": 8657989676, "lat": 32.8381641, "lon": -116.9858355}, {"type": "node", "id": 8657989677, "lat": 32.8381256, "lon": -116.9858266}, {"type": "node", "id": 8657989678, "lat": 32.8381273, "lon": -116.9860814}, {"type": "node", "id": 8657989679, "lat": 32.8382059, "lon": -116.9860824}, {"type": "node", "id": 8657989680, "lat": 32.8382051, "lon": -116.9860097}, {"type": "node", "id": 8657989681, "lat": 32.8384946, "lon": -116.9847308}, {"type": "node", "id": 8657989682, "lat": 32.8384978, "lon": -116.9844979}, {"type": "node", "id": 8657989683, "lat": 32.8381189, "lon": -116.9844967}, {"type": "node", "id": 8657989684, "lat": 32.83812, "lon": -116.9847346}, {"type": "node", "id": 8707335565, "lat": 32.5794318, "lon": -117.0362782, "tags": {"addr:city": "San Diego", "addr:housenumber": "762", "addr:postcode": "92154", "addr:state": "CA", "addr:street": "Dennery Road", "amenity": "bank", "atm": "yes", "brand": "Navy Federal Credit Union", "brand:wikidata": "Q6982632", "name": "Navy Federal Credit Union", "phone": "+1-888-842-6328", "website": "https://www.navyfederal.org/branches-atms/locations/usa/ca/san-diego/plm.html"}}, {"type": "node", "id": 8732422113, "lat": 32.5478723, "lon": -117.0339853, "tags": {"addr:city": "San Diego", "addr:housenumber": "637", "addr:postcode": "92173", "addr:state": "CA", "addr:street": "East San Ysidro Boulevard", "air_conditioning": "yes", "amenity": "bank", "atm": "yes", "brand": "Wells Fargo", "brand:wikidata": "Q744149", "drive_through": "no", "name": "Wells Fargo", "website": "https://www.wellsfargo.com/locator/bank/637__E__SAN__YSIDRO__BLVD_SAN__YSIDRO_CA_92173/"}}, {"type": "node", "id": 8732988525, "lat": 32.6321817, "lon": -117.0860697}, {"type": "node", "id": 8849316444, "lat": 32.8080109, "lon": -116.9720053, "tags": {"addr:city": "El Cajon", "addr:housenumber": "742", "addr:postcode": "92020", "addr:state": "CA", "addr:street": "Fletcher Parkway", "amenity": "bank", "atm": "yes", "brand": "Banner Bank", "brand:wikidata": "Q4856910", "name": "Banner Bank", "website": "https://locations.bannerbank.com/ca/el-cajon/742-fletcher-pkwy"}}, {"type": "node", "id": 8849316450, "lat": 32.8073221, "lon": -116.9714133, "tags": {"addr:city": "El Cajon", "addr:housenumber": "709", "addr:postcode": "92020", "addr:state": "CA", "addr:street": "Fletcher Parkway", "amenity": "bank", "brand": "Navy Federal Credit Union", "brand:wikidata": "Q6982632", "name": "Navy Federal Credit Union", "website": "https://www.navyfederal.org/branches-atms/locations/usa/ca/el-cajon/elc.html"}}, {"type": "node", "id": 8851450229, "lat": 32.739664, "lon": -116.9373871, "tags": {"addr:city": "El Cajon", "addr:housenumber": "2891", "addr:postcode": "92019", "addr:state": "CA", "addr:street": "Jamacha Road", "addr:unit": "F", "amenity": "bank", "atm": "yes", "brand": "Navy Federal Credit Union", "brand:wikidata": "Q6982632", "drive_through": "no", "name": "Navy Federal Credit Union", "phone": "+18888426328", "website": "https://www.navyfederal.org/branches-atms/locations/usa/ca/el-cajon/rsd.html"}}, {"type": "node", "id": 8863635974, "lat": 32.7967635, "lon": -116.9359645}, {"type": "node", "id": 8863635975, "lat": 32.7967132, "lon": -116.9359649}, {"type": "node", "id": 8863635976, "lat": 32.7967136, "lon": -116.9360344}, {"type": "node", "id": 8863635977, "lat": 32.796763, "lon": -116.936034}, {"type": "node", "id": 8863635978, "lat": 32.7967635, "lon": -116.9361075}, {"type": "node", "id": 8863635979, "lat": 32.7967095, "lon": -116.936108}, {"type": "node", "id": 8863635980, "lat": 32.79671, "lon": -116.9361788}, {"type": "node", "id": 8863635981, "lat": 32.7967637, "lon": -116.9361783}, {"type": "node", "id": 8863635982, "lat": 32.7967644, "lon": -116.9362932}, {"type": "node", "id": 8863635983, "lat": 32.7969572, "lon": -116.9362916}, {"type": "node", "id": 8863635984, "lat": 32.7969551, "lon": -116.9359427}, {"type": "node", "id": 8863635985, "lat": 32.7969044, "lon": -116.9359431}, {"type": "node", "id": 8863635986, "lat": 32.7969043, "lon": -116.9359268}, {"type": "node", "id": 8863635987, "lat": 32.7968156, "lon": -116.9359276}, {"type": "node", "id": 8863635988, "lat": 32.7968157, "lon": -116.9359441}, {"type": "node", "id": 8863635989, "lat": 32.7967634, "lon": -116.9359446}, {"type": "node", "id": 8881430612, "lat": 32.748674, "lon": -116.9617432}, {"type": "node", "id": 8881430613, "lat": 32.7486702, "lon": -116.961515}, {"type": "node", "id": 8881430614, "lat": 32.748483, "lon": -116.9615194}, {"type": "node", "id": 8881430615, "lat": 32.7484868, "lon": -116.9617477}, {"type": "node", "id": 8893457621, "lat": 32.8148565, "lon": -116.9174873}, {"type": "node", "id": 8893457622, "lat": 32.8147182, "lon": -116.9172209}, {"type": "node", "id": 8893457623, "lat": 32.8145371, "lon": -116.917344}, {"type": "node", "id": 8893457624, "lat": 32.8146774, "lon": -116.9176116}, {"type": "node", "id": 8899904469, "lat": 32.7483957, "lon": -116.9836217}, {"type": "node", "id": 8899904470, "lat": 32.7483929, "lon": -116.9834736}, {"type": "node", "id": 8899904471, "lat": 32.7481435, "lon": -116.98348}, {"type": "node", "id": 8899904472, "lat": 32.7481466, "lon": -116.9836468}, {"type": "node", "id": 8899904473, "lat": 32.7481768, "lon": -116.983646}, {"type": "node", "id": 8899904474, "lat": 32.7481787, "lon": -116.9837451}, {"type": "node", "id": 8899904475, "lat": 32.7482454, "lon": -116.9837434}, {"type": "node", "id": 8899904476, "lat": 32.7482436, "lon": -116.9836481}, {"type": "node", "id": 8899904477, "lat": 32.7483401, "lon": -116.9836455}, {"type": "node", "id": 8899904478, "lat": 32.7483397, "lon": -116.9836231}, {"type": "node", "id": 9080792888, "lat": 32.8031744, "lon": -117.0077794}, {"type": "node", "id": 9080792889, "lat": 32.8030898, "lon": -117.0077034}, {"type": "node", "id": 9080792890, "lat": 32.8031043, "lon": -117.0077951}, {"type": "node", "id": 9080792891, "lat": 32.8031669, "lon": -117.0076862}, {"type": "node", "id": 9177103644, "lat": 32.7435667, "lon": -116.9340293, "tags": {"addr:city": "El Cajon", "addr:housenumber": "12098", "addr:postcode": "92019", "addr:state": "CA", "addr:street": "Fury Lane", "addr:unit": "D", "alt_name": "UnionBank", "amenity": "bank", "atm": "yes", "brand": "Union Bank", "brand:wikidata": "Q1442804", "drive_through": "no", "name": "Union Bank", "phone": "+16196706802", "website": "https://www.unionbank.com/locations/california/el-cajon/12098-fury-lane-suite-d-92019"}}, {"type": "node", "id": 9178842781, "lat": 32.7484803, "lon": -116.984156}, {"type": "node", "id": 9178842782, "lat": 32.7483101, "lon": -116.9841574}, {"type": "node", "id": 9178842783, "lat": 32.7483106, "lon": -116.984233}, {"type": "node", "id": 9178842784, "lat": 32.7482262, "lon": -116.9842338}, {"type": "node", "id": 9178842785, "lat": 32.7482258, "lon": -116.9841615}, {"type": "node", "id": 9178842786, "lat": 32.7482002, "lon": -116.9841617}, {"type": "node", "id": 9178842787, "lat": 32.7481987, "lon": -116.9839185}, {"type": "node", "id": 9178842788, "lat": 32.7484811, "lon": -116.9839161}, {"type": "node", "id": 9178842789, "lat": 32.7484819, "lon": -116.9840473}, {"type": "node", "id": 9178842790, "lat": 32.7485171, "lon": -116.984047}, {"type": "node", "id": 9178842791, "lat": 32.7485173, "lon": -116.9840846}, {"type": "node", "id": 9178842792, "lat": 32.7484799, "lon": -116.9840849}, {"type": "node", "id": 9181615375, "lat": 32.7951532, "lon": -116.9400083}, {"type": "node", "id": 9181615376, "lat": 32.795117, "lon": -116.9399681}, {"type": "node", "id": 9181615377, "lat": 32.7951206, "lon": -116.9397295}, {"type": "node", "id": 9181615378, "lat": 32.7951569, "lon": -116.9396907}, {"type": "node", "id": 9181615379, "lat": 32.795289, "lon": -116.9396912}, {"type": "node", "id": 9181615380, "lat": 32.7952891, "lon": -116.9396592}, {"type": "node", "id": 9181615381, "lat": 32.7953084, "lon": -116.9396593}, {"type": "node", "id": 9181615382, "lat": 32.7953084, "lon": -116.9396742}, {"type": "node", "id": 9181615383, "lat": 32.7953938, "lon": -116.9396745}, {"type": "node", "id": 9181615384, "lat": 32.7954085, "lon": -116.9396954}, {"type": "node", "id": 9181615385, "lat": 32.795407, "lon": -116.940007}, {"type": "node", "id": 9181615386, "lat": 32.7953887, "lon": -116.940027}, {"type": "node", "id": 9181615387, "lat": 32.7953007, "lon": -116.9400262}, {"type": "node", "id": 9181615388, "lat": 32.7952838, "lon": -116.9400043}, {"type": "node", "id": 9185141902, "lat": 32.8081786, "lon": -116.9679986}, {"type": "node", "id": 9185141903, "lat": 32.8081781, "lon": -116.9680826}, {"type": "node", "id": 9185141904, "lat": 32.8080725, "lon": -116.9680816}, {"type": "node", "id": 9185141905, "lat": 32.808074, "lon": -116.9678452}, {"type": "node", "id": 9185141906, "lat": 32.8081725, "lon": -116.967846}, {"type": "node", "id": 9185141907, "lat": 32.8081725, "lon": -116.9678315}, {"type": "node", "id": 9185141908, "lat": 32.8082112, "lon": -116.9678319}, {"type": "node", "id": 9185141909, "lat": 32.8082111, "lon": -116.9678456}, {"type": "node", "id": 9185141910, "lat": 32.8083469, "lon": -116.9678468}, {"type": "node", "id": 9185141911, "lat": 32.808347, "lon": -116.9678364}, {"type": "node", "id": 9185141912, "lat": 32.8084046, "lon": -116.9678369}, {"type": "node", "id": 9185141913, "lat": 32.8084035, "lon": -116.9680206}, {"type": "node", "id": 9185141914, "lat": 32.8082801, "lon": -116.9680195}, {"type": "node", "id": 9185141915, "lat": 32.8082802, "lon": -116.9679995}, {"type": "node", "id": 9185141933, "lat": 32.8086456, "lon": -116.955357}, {"type": "node", "id": 9185141934, "lat": 32.808643, "lon": -116.9551929}, {"type": "node", "id": 9185141935, "lat": 32.8084195, "lon": -116.9551922}, {"type": "node", "id": 9185141936, "lat": 32.8084208, "lon": -116.9552191}, {"type": "node", "id": 9185141937, "lat": 32.8084065, "lon": -116.9552174}, {"type": "node", "id": 9185141938, "lat": 32.8084085, "lon": -116.955333}, {"type": "node", "id": 9185141939, "lat": 32.8084222, "lon": -116.9553347}, {"type": "node", "id": 9185141940, "lat": 32.8084243, "lon": -116.9553607}, {"type": "node", "id": 9188672924, "lat": 32.8062063, "lon": -116.9353197}, {"type": "node", "id": 9188672925, "lat": 32.8062967, "lon": -116.9353191}, {"type": "node", "id": 9188672926, "lat": 32.8062971, "lon": -116.9353465}, {"type": "node", "id": 9188672927, "lat": 32.806286, "lon": -116.9353465}, {"type": "node", "id": 9188672928, "lat": 32.8062864, "lon": -116.9355345}, {"type": "node", "id": 9188672929, "lat": 32.8060059, "lon": -116.9355354}, {"type": "node", "id": 9188672930, "lat": 32.8060054, "lon": -116.9353091}, {"type": "node", "id": 9188672931, "lat": 32.806058, "lon": -116.9353089}, {"type": "node", "id": 9188672932, "lat": 32.8060581, "lon": -116.9353201}, {"type": "node", "id": 9244742196, "lat": 32.8424749, "lon": -116.9860675}, {"type": "node", "id": 9244742197, "lat": 32.8425643, "lon": -116.9861127}, {"type": "node", "id": 9244742198, "lat": 32.8425597, "lon": -116.9861258}, {"type": "node", "id": 9244742199, "lat": 32.8426225, "lon": -116.9861576}, {"type": "node", "id": 9244742200, "lat": 32.8427221, "lon": -116.9858783}, {"type": "node", "id": 9244742201, "lat": 32.8426608, "lon": -116.9858473}, {"type": "node", "id": 9244742202, "lat": 32.8426563, "lon": -116.9858601}, {"type": "node", "id": 9244742203, "lat": 32.8425704, "lon": -116.9858166}, {"type": "node", "id": 9244742204, "lat": 32.8425356, "lon": -116.985914}, {"type": "node", "id": 9244742205, "lat": 32.842519, "lon": -116.9859056}, {"type": "node", "id": 9244742206, "lat": 32.8424981, "lon": -116.9859643}, {"type": "node", "id": 9244742207, "lat": 32.8425097, "lon": -116.9859702}, {"type": "node", "id": 9291363023, "lat": 32.7387492, "lon": -116.9415099, "tags": {"addr:city": "El Cajon", "addr:country": "US", "addr:housenumber": "2987", "addr:postcode": "92019", "addr:state": "CA", "addr:street": "Jamacha Road", "amenity": "bank", "name": "Neighborhood National Bank"}}, {"type": "node", "id": 9344502432, "lat": 32.7739573, "lon": -117.0087405}, {"type": "node", "id": 9344502433, "lat": 32.7737893, "lon": -117.0087095}, {"type": "node", "id": 9344502434, "lat": 32.7738162, "lon": -117.008504}, {"type": "node", "id": 9344502435, "lat": 32.7738438, "lon": -117.0085091}, {"type": "node", "id": 9344502436, "lat": 32.7738429, "lon": -117.0085161}, {"type": "node", "id": 9344502437, "lat": 32.7738557, "lon": -117.0085185}, {"type": "node", "id": 9344502438, "lat": 32.7738588, "lon": -117.0084948}, {"type": "node", "id": 9344502439, "lat": 32.7739019, "lon": -117.0085027}, {"type": "node", "id": 9344502440, "lat": 32.7739081, "lon": -117.0084551}, {"type": "node", "id": 9344502441, "lat": 32.7739511, "lon": -117.0084631}, {"type": "node", "id": 9344502442, "lat": 32.7739446, "lon": -117.0085127}, {"type": "node", "id": 9344502443, "lat": 32.773986, "lon": -117.0085204}, {"type": "node", "id": 9364521688, "lat": 32.7750402, "lon": -117.016435}, {"type": "node", "id": 9364521689, "lat": 32.7750478, "lon": -117.0164156}, {"type": "node", "id": 9364521690, "lat": 32.7749158, "lon": -117.0163426}, {"type": "node", "id": 9364521691, "lat": 32.775019, "lon": -117.0160783}, {"type": "node", "id": 9364521692, "lat": 32.7750315, "lon": -117.0160852}, {"type": "node", "id": 9364521693, "lat": 32.7750433, "lon": -117.0160548}, {"type": "node", "id": 9364521694, "lat": 32.7751934, "lon": -117.0161377}, {"type": "node", "id": 9364521695, "lat": 32.7751092, "lon": -117.0163534}, {"type": "node", "id": 9364521696, "lat": 32.7751672, "lon": -117.0163854}, {"type": "node", "id": 9364521697, "lat": 32.775148, "lon": -117.0164345}, {"type": "node", "id": 9364521698, "lat": 32.7750874, "lon": -117.016401}, {"type": "node", "id": 9406108869, "lat": 32.7787791, "lon": -116.9574962}, {"type": "node", "id": 9406108870, "lat": 32.7787788, "lon": -116.9574733}, {"type": "node", "id": 9406108871, "lat": 32.7789254, "lon": -116.9575834}, {"type": "node", "id": 9406108872, "lat": 32.7789254, "lon": -116.957611}, {"type": "node", "id": 9406108873, "lat": 32.7788251, "lon": -116.9576631}, {"type": "node", "id": 9406108874, "lat": 32.7788251, "lon": -116.9576792}, {"type": "node", "id": 9525429767, "lat": 32.7765088, "lon": -117.010614}, {"type": "node", "id": 9525429768, "lat": 32.7765219, "lon": -117.0106472}, {"type": "node", "id": 9525429769, "lat": 32.7763609, "lon": -117.0107366}, {"type": "node", "id": 9525429770, "lat": 32.7763516, "lon": -117.0107129}, {"type": "node", "id": 9525429771, "lat": 32.7765714, "lon": -117.0105052}, {"type": "node", "id": 9525429774, "lat": 32.7765319, "lon": -117.0104084}, {"type": "node", "id": 9525429782, "lat": 32.7764556, "lon": -117.0103744, "tags": {"entrance": "main"}}, {"type": "node", "id": 9525429783, "lat": 32.7766634, "lon": -117.0086477}, {"type": "node", "id": 9525429784, "lat": 32.7766954, "lon": -117.0087284}, {"type": "node", "id": 9525429785, "lat": 32.7767106, "lon": -117.0087199}, {"type": "node", "id": 9525429786, "lat": 32.7767503, "lon": -117.00882}, {"type": "node", "id": 9525429787, "lat": 32.7767729, "lon": -117.0088073}, {"type": "node", "id": 9525429788, "lat": 32.7767829, "lon": -117.0088324}, {"type": "node", "id": 9525429789, "lat": 32.7768862, "lon": -117.0085625}, {"type": "node", "id": 9525429792, "lat": 32.7769276, "lon": -117.0086668}, {"type": "node", "id": 9525429801, "lat": 32.7766798, "lon": -117.008689, "tags": {"entrance": "main"}}, {"type": "node", "id": 9530907070, "lat": 32.6410599, "lon": -117.0511907}, {"type": "node", "id": 9530907071, "lat": 32.6410606, "lon": -117.0512001}, {"type": "node", "id": 9530907072, "lat": 32.6410751, "lon": -117.0514413}, {"type": "node", "id": 9530907073, "lat": 32.641074, "lon": -117.0514252}, {"type": "node", "id": 9530907074, "lat": 32.640929, "lon": -117.0513748}, {"type": "node", "id": 9530907075, "lat": 32.6409248, "lon": -117.0512991}, {"type": "node", "id": 9530907076, "lat": 32.6409101, "lon": -117.0513006}, {"type": "node", "id": 9530907077, "lat": 32.6409153, "lon": -117.0513761}, {"type": "node", "id": 9530955218, "lat": 32.638475, "lon": -117.0496272, "tags": {"addr:city": "Chula Vista", "addr:housenumber": "386", "addr:postcode": "91910", "addr:state": "CA", "addr:street": "East H Street", "addr:unit": "213", "amenity": "bank", "atm": "yes", "brand": "California Coast Credit Union", "brand:wikidata": "Q25025281", "drive_through": "no", "name": "California Coast Credit Union"}}, {"type": "node", "id": 9530955226, "lat": 32.6394347, "lon": -117.0513302, "tags": {"addr:city": "Chula Vista", "addr:country": "US", "addr:housenumber": "358", "addr:postcode": "91910", "addr:state": "CA", "addr:street": "East H Street", "addr:unit": "603", "amenity": "bank", "drive_through": "no", "name": "Cabrillo Credit Union", "phone": "+18585477400", "website": "https://www.cabrillocu.com/"}}, {"type": "node", "id": 9530955236, "lat": 32.640201, "lon": -117.0503117}, {"type": "node", "id": 9530955239, "lat": 32.6401102, "lon": -117.0503815}, {"type": "node", "id": 9559401964, "lat": 32.6093033, "lon": -117.0813621, "tags": {"amenity": "bank", "atm": "yes", "brand": "Chase", "brand:wikidata": "Q524629", "check_date": "2024-09-17", "check_date:opening_hours": "2024-09-17", "drive_through": "no", "name": "Chase", "opening_hours": "Mo-Fr 09:00-17:00; Sa 09:00-14:00; Su closed", "phone": "+1 619-476-3176", "website": "https://locator.chase.com/ca/chula-vista/1120-broadway"}}, {"type": "node", "id": 9897050454, "lat": 32.8069548, "lon": -116.971391, "tags": {"amenity": "bank", "atm": "yes", "brand": "Navy Federal Credit Union", "brand:wikidata": "Q6982632", "name": "Navy Federal Credit Union"}}, {"type": "node", "id": 10000803670, "lat": 32.8031408, "lon": -117.0077869}, {"type": "node", "id": 10000803671, "lat": 32.8031309, "lon": -117.0076942}, {"type": "node", "id": 10102116268, "lat": 32.7980631, "lon": -116.9618703}, {"type": "node", "id": 10102116269, "lat": 32.7980626, "lon": -116.9621153}, {"type": "node", "id": 10102116270, "lat": 32.7978013, "lon": -116.9621147}, {"type": "node", "id": 10102116271, "lat": 32.7978012, "lon": -116.9622148}, {"type": "node", "id": 10102116272, "lat": 32.7977311, "lon": -116.9622147}, {"type": "node", "id": 10102116273, "lat": 32.7977312, "lon": -116.9621207}, {"type": "node", "id": 10102116274, "lat": 32.7977411, "lon": -116.9620747}, {"type": "node", "id": 10102116275, "lat": 32.7977413, "lon": -116.9619761}, {"type": "node", "id": 10102116276, "lat": 32.7977095, "lon": -116.961976}, {"type": "node", "id": 10102116277, "lat": 32.7977097, "lon": -116.9618694}, {"type": "node", "id": 10119198261, "lat": 32.7639689, "lon": -117.0246126, "tags": {"amenity": "bank", "atm": "yes", "drive_through": "yes"}}, {"type": "node", "id": 10789452188, "lat": 32.7739047, "lon": -117.008481}, {"type": "node", "id": 10789452189, "lat": 32.7739476, "lon": -117.00849}, {"type": "node", "id": 10789478621, "lat": 32.7480315, "lon": -116.9613844}, {"type": "node", "id": 10807133815, "lat": 32.7684543, "lon": -117.0510831}, {"type": "node", "id": 10807133816, "lat": 32.7683691, "lon": -117.0510777}, {"type": "node", "id": 10823675531, "lat": 32.7441625, "lon": -116.9321981}, {"type": "node", "id": 10823675532, "lat": 32.7441292, "lon": -116.9322862}, {"type": "node", "id": 10826154085, "lat": 32.7482447, "lon": -116.9836956}, {"type": "node", "id": 10826154086, "lat": 32.7481778, "lon": -116.9836975}, {"type": "node", "id": 10827038543, "lat": 32.7751101, "lon": -117.0164134}, {"type": "node", "id": 10827038544, "lat": 32.7751295, "lon": -117.0163677}, {"type": "node", "id": 10829568416, "lat": 32.8520102, "lon": -116.9315221}, {"type": "node", "id": 10829568417, "lat": 32.8520105, "lon": -116.9315955}, {"type": "node", "id": 10838939223, "lat": 32.8379417, "lon": -116.7777687}, {"type": "node", "id": 10838939224, "lat": 32.8379423, "lon": -116.7778691}, {"type": "node", "id": 11110905215, "lat": 32.7433502, "lon": -117.0530083, "tags": {"addr:housenumber": "3470", "addr:postcode": "92115", "addr:street": "College Avenue", "amenity": "bank", "name": "Mission Federal Credit Union", "opening_hours": "Mo-Fr 09:00-17:00; Sa 09:00-16:00", "phone": "+1(800) 500-6328", "website": "https://www.missionfed.com/location/college-grove/"}}, {"type": "node", "id": 11110906706, "lat": 32.7438748, "lon": -117.0535944, "tags": {"addr:housenumber": "3490", "addr:postcode": "92115", "addr:street": "College Avenue", "amenity": "bank", "name": "Chase Bank", "opening_hours": "Mo-Fr 09:00-17:00; Sa 09:00-14:00", "phone": "+1(619) 583-2266", "website": "https://locator.chase.com/ca/san-diego/3490-college-ave"}}, {"type": "node", "id": 12016578866, "lat": 32.83965, "lon": -116.9869418}, {"type": "node", "id": 12164434796, "lat": 32.8235309, "lon": -116.9031083, "tags": {"addr:city": "El Cajon", "addr:housenumber": "13465", "addr:postcode": "92021", "addr:state": "CA", "addr:street": "Camino", "addr:unit": "105", "amenity": "bank", "atm": "yes", "brand": "Wells Fargo", "brand:wikidata": "Q744149", "drive_through": "no", "name": "Wells Fargo"}}, {"type": "node", "id": 12167204301, "lat": 32.6765622, "lon": -117.0922972, "tags": {"addr:housenumber": "1302", "addr:postcode": "91950", "addr:street": "E Plaza Boulevard", "amenity": "bank", "name": "Mission Federal Credit Union", "opening_hours": "Mo-Fr 09:00-17:00; Sa 09:00-16:00", "phone": "+18005006328", "website": "https://www.missionfed.com/location/national-city/"}}, {"type": "node", "id": 12237370405, "lat": 32.838127, "lon": -116.9860405}, {"type": "node", "id": 12237370406, "lat": 32.8382054, "lon": -116.98604}, {"type": "way", "id": 31800727, "nodes": [596985688, 356035956, 356053187, 356065335, 355955591, 355972089, 355988233, 356003728, 356020477, 356047511, 356059505, 596985688], "tags": {"addr:city": "San Diego", "addr:country": "US", "addr:housenumber": "525", "addr:postcode": "92154", "addr:street": "19th Street", "amenity": "bank", "atm": "yes", "brand": "Bank of America", "brand:wikidata": "Q487907", "building": "commercial", "drive_through": "yes", "name": "Bank of America", "sangis:OBJECTID": "1195", "sangis:TYPE": "Commercial", "source": "SanGIS Footprints_Nonresidential_SD public domain (http://www.sangis.org/);SanGIS Addresses Public Domain (http://www.sangis.org/)", "website": "https://locators.bankofamerica.com/ca/sandiego/financial-centers-san-diego-11608.html", "wheelchair": "yes"}}, {"type": "way", "id": 31808223, "nodes": [356090761, 356119519, 9080792891, 10000803671, 9080792889, 9080792890, 10000803670, 9080792888, 2232296052, 356135771, 356090761], "tags": {"addr:city": "San Diego", "addr:housenumber": "8850", "addr:postcode": "92119", "addr:state": "CA", "addr:street": "Navajo Road", "amenity": "bank", "atm": "yes", "brand": "Chase", "brand:wikidata": "Q524629", "building": "yes", "building_type": "commercial", "check_date": "2024-09-17", "check_date:opening_hours": "2024-09-17", "drive_through": "yes", "name": "Chase", "opening_hours": "Mo-Fr 09:00-17:00; Sa 09:00-14:00; Su closed", "phone": "+1 619-465-3886", "sangis:OBJECTID": "4096", "sangis:TYPE": "Commercial", "source": "SanGIS Footprints_Nonresidential_SD public domain (http://www.sangis.org/)", "website": "https://locator.chase.com/ca/san-diego/8850-navajo-rd"}}, {"type": "way", "id": 31817879, "nodes": [356167757, 356177675, 356236072, 356259903, 356219280, 356226328, 356191567, 356206500, 356167757], "tags": {"addr:city": "San Diego", "addr:housenumber": "645", "addr:postcode": "92154", "addr:state": "CA", "addr:street": "Beyer Way", "amenity": "bank", "atm": "yes", "brand": "Bank of America", "brand:wikidata": "Q487907", "building": "yes", "building_type": "commercial", "name": "Bank of America", "sangis:OBJECTID": "7301", "sangis:TYPE": "Commercial", "source": "SanGIS Footprints_Nonresidential_SD public domain (http://www.sangis.org/)", "website": "https://locators.bankofamerica.com/ca/sandiego/financial-centers-san-diego-11263.html"}}, {"type": "way", "id": 31840934, "nodes": [356386810, 356344270, 356466726, 356435758, 356386810], "tags": {"amenity": "bank", "brand": "Chase", "brand:wikidata": "Q524629", "building": "yes", "building_type": "commercial", "check_date": "2024-09-17", "check_date:opening_hours": "2024-09-17", "name": "Chase", "opening_hours": "Mo-Fr 09:00-17:00; Sa 09:00-14:00; Su closed", "phone": "+1 619-283-5407", "sangis:OBJECTID": "13241", "sangis:TYPE": "Commercial", "source": "SanGIS Footprints_Nonresidential_SD public domain (http://www.sangis.org/)", "website": "https://locator.chase.com/ca/san-diego/6116-mission-gorge-rd"}}, {"type": "way", "id": 31842039, "nodes": [356367850, 356350157, 356409364, 356387013, 356454111, 356435007, 356479127, 356331390, 356489231, 356373357, 356353037, 596595303, 356424882, 356367850], "tags": {"addr:city": "San Diego", "addr:housenumber": "8630", "addr:postcode": "92119", "addr:state": "CA", "addr:street": "Lake Murray Boulevard", "alt_name": "UnionBank", "amenity": "bank", "atm": "yes", "brand": "Union Bank", "brand:wikidata": "Q1442804", "building": "yes", "building_type": "commercial", "drive_through": "yes", "name": "Union Bank", "sangis:OBJECTID": "12326", "sangis:TYPE": "Commercial", "source": "SanGIS Addresses Public Domain (http://www.sangis.org/)"}}, {"type": "way", "id": 58672178, "nodes": [726925264, 726925265, 726925266, 726925267, 726925264], "tags": {"amenity": "bank", "brand": "Bank of America", "brand:wikidata": "Q487907", "building": "yes", "name": "Bank of America", "website": "https://locators.bankofamerica.com/ca/lamesa/financial-centers-la-mesa-8578.html"}}, {"type": "way", "id": 58672234, "nodes": [726926556, 9525429792, 9525429789, 726926558, 726926559, 726926560, 9525429783, 9525429801, 9525429784, 9525429785, 9525429786, 9525429787, 9525429788, 726926561, 726926563, 726926556], "tags": {"addr:city": "La Mesa", "addr:housenumber": "5500", "addr:postcode": "91942", "addr:state": "CA", "addr:street": "Grossmont Center Drive", "amenity": "bank", "atm": "yes", "building": "yes", "drive_through": "yes", "name": "California Bank & Trust", "opening_hours": "Mo-Th 09:00-17:00; Fr 09:00-18:00", "phone": "+16194622800", "website": "https://www.calbanktrust.com/"}}, {"type": "way", "id": 58672235, "nodes": [726926564, 9525429771, 9525429774, 726926565, 9525429782, 726926566, 726926567, 9525429770, 9525429769, 9525429768, 9525429767, 726926564], "tags": {"addr:city": "La Mesa", "addr:housenumber": "5500", "addr:postcode": "91942", "addr:state": "CA", "addr:street": "Grossmont Center Drive", "amenity": "bank", "atm": "yes", "brand": "Wells Fargo", "brand:wikidata": "Q744149", "building": "yes", "drive_through": "yes", "name": "Wells Fargo", "phone": "+16194618660", "website": "https://www.wellsfargo.com/locator/bank/5500__GROSSMONT__CENTER__DR_LA__MESA_CA_91942/"}}, {"type": "way", "id": 95867042, "nodes": [1110961135, 1110961056, 1110961140, 1110961123, 1110961114, 1110961129, 1110961117, 1110961110, 1110961135], "tags": {"addr:city": "El Cajon", "addr:country": "US", "addr:housenumber": "2366", "addr:postcode": "92019", "addr:state": "CA", "addr:street": "Jamacha Road", "amenity": "bank", "brand": "Wells Fargo", "brand:wikidata": "Q744149", "building": "yes", "drive_through": "yes", "name": "Wells Fargo", "source": "SanGIS Addresses Public Domain (http://www.sangis.org/)"}}, {"type": "way", "id": 96883958, "nodes": [1122583636, 1122583623, 4046827654, 4046827651, 4046827650, 4046827644, 4046827642, 4046827646, 1122583652, 1122583710, 4046827667, 4046827668, 4046827670, 4046827676, 4046827677, 4046827674, 1122583636], "tags": {"addr:housenumber": "2755", "addr:street": "Navajo Road", "amenity": "bank", "atm": "yes", "branch": "Branch", "brand": "U.S. Bank", "brand:wikidata": "Q739084", "building": "yes", "drive_through": "yes", "name": "U.S. Bank", "opening_hours": "Mo-Th 09:00-17:00; Fr 09:00-18:00", "operator": "U.S. Bancorp", "source": "SanGIS Addresses Public Domain (http://www.sangis.org/)", "website": "https://locations.usbank.com/index/california/el-cajon/fletcher-hills-ca-branch.html"}}, {"type": "way", "id": 100575296, "nodes": [1162854940, 1162854528, 1162854890, 1162854573, 1162855126, 1162854695, 1162854940], "tags": {"amenity": "bank", "brand": "Bank of America", "brand:wikidata": "Q487907", "building": "yes", "name": "Bank of America", "website": "https://locators.bankofamerica.com/ca/bonita/financial-centers-bonita-7687.html"}}, {"type": "way", "id": 105108074, "nodes": [595968777, 1211560586, 10838939223, 1211560520, 1211560454, 10838939224, 1211560605, 1211560623, 595968777], "tags": {"addr:city": "Alpine", "addr:country": "US", "addr:housenumber": "1714", "addr:postcode": "91901", "addr:street": "Alpine Boulevard", "amenity": "bank", "brand": "Chase", "brand:wikidata": "Q524629", "building": "yes", "check_date": "2024-09-17", "check_date:opening_hours": "2024-09-17", "name": "Chase", "opening_hours": "Mo-Fr 09:00-17:00; Sa 09:00-14:00; Su closed", "phone": "+1 619-445-2620", "source": "Bing;SanGIS Addresses Public Domain (http://www.sangis.org/)", "website": "https://locator.chase.com/ca/alpine/1271-tavern-rd"}}, {"type": "way", "id": 108057165, "nodes": [1240449982, 1240449973, 9530907070, 9530907071, 1240449977, 9530907075, 9530907076, 9530907077, 9530907074, 597065723, 9530907073, 9530907072, 1240449982], "tags": {"addr:city": "Chula Vista", "addr:country": "US", "addr:housenumber": "330", "addr:postcode": "91910", "addr:state": "CA", "addr:street": "East H Street", "amenity": "bank", "brand": "Chase", "brand:wikidata": "Q524629", "building": "yes", "check_date": "2024-09-17", "check_date:opening_hours": "2024-09-17", "name": "Chase", "opening_hours": "Mo-Fr 09:00-17:00; Sa 09:00-14:00; Su closed", "phone": "+1 619-585-8712", "source": "SanGIS Addresses Public Domain (http://www.sangis.org/)", "website": "https://locator.chase.com/ca/chula-vista/330-e-h-st"}}, {"type": "way", "id": 108057166, "nodes": [1240449993, 1240450064, 597180283, 1240449985, 9530955239, 9530955236, 1240449993], "tags": {"addr:city": "Chula Vista", "addr:country": "US", "addr:housenumber": "354", "addr:postcode": "91910", "addr:street": "East H Street", "amenity": "bank", "brand": "Mission Federal Credit Union", "brand:wikidata": "Q18345955", "building": "yes", "drive_through": "yes", "name": "Mission Federal Credit Union", "phone": "+18005006328", "source": "SanGIS Addresses Public Domain (http://www.sangis.org/)", "website": "https://www.missionfed.com/branches/chula-vista-terra-nova"}}, {"type": "way", "id": 109688331, "nodes": [1254995411, 1254994947, 1254995051, 1254995053, 1254995411], "tags": {"addr:city": "El Cajon", "addr:housenumber": "2930", "addr:postcode": "92019", "addr:state": "CA", "addr:street": "Jamacha Road", "amenity": "bank", "brand": "Bank of America", "brand:wikidata": "Q487907", "building": "yes", "drive_through": "no", "name": "Bank of America", "phone": "+16196600773", "website": "https://locators.bankofamerica.com/ca/elcajon/financial-centers-el-cajon-16564.html"}}, {"type": "way", "id": 109688347, "nodes": [1254995447, 1254995242, 1254994996, 1254995522, 1254995447], "tags": {"addr:city": "El Cajon", "addr:housenumber": "2910", "addr:postcode": "92019", "addr:state": "CA", "addr:street": "Cuyamaca College Drive West", "amenity": "bank", "atm": "yes", "brand": "U.S. Bank", "brand:wikidata": "Q739084", "building": "yes", "drive_through": "yes", "name": "U.S. Bank"}}, {"type": "way", "id": 109689678, "nodes": [1255019011, 1255018979, 10823675531, 1255018740, 1255019033, 10823675532, 1255018566, 1255018477, 1255019011], "tags": {"addr:city": "San Diego", "addr:country": "US", "addr:housenumber": "2644", "addr:postcode": "92019", "addr:state": "CA", "addr:street": "Jamacha Road", "amenity": "bank", "atm": "yes", "brand": "Chase", "brand:wikidata": "Q524629", "building": "yes", "check_date": "2024-09-17", "check_date:opening_hours": "2024-09-17", "drive_through": "yes", "name": "Chase", "opening_hours": "Mo-Fr 09:00-17:00; Sa 09:00-14:00; Su closed", "phone": "+1 619-670-3306", "source": "SanGIS Addresses Public Domain (http://www.sangis.org/)", "website": "https://locator.chase.com/ca/el-cajon/2644-jamacha-rd"}}, {"type": "way", "id": 119884149, "nodes": [1345509083, 596036645, 1345509053, 1345509086, 10829568417, 1345509087, 1345509079, 10829568416, 1345509081, 1345509085, 1345509082, 1345509083], "tags": {"addr:city": "Lakeside", "addr:country": "US", "addr:housenumber": "9558", "addr:postcode": "92040", "addr:state": "CA", "addr:street": "Winter Gardens Boulevard", "amenity": "bank", "atm": "yes", "brand": "Chase", "brand:wikidata": "Q524629", "building": "yes", "check_date": "2024-09-17", "check_date:opening_hours": "2024-09-17", "drive_through": "yes", "name": "Chase", "opening_hours": "Mo-Fr 09:00-17:00; Sa-Su closed", "phone": "+1 619-561-6365", "source": "SanGIS Addresses Public Domain (http://www.sangis.org/)", "website": "https://locator.chase.com/ca/lakeside/9558-winter-gardens-blvd"}}, {"type": "way", "id": 143185747, "nodes": [1566758164, 3016790307, 3016725056, 3016787488, 3016725052, 3016725053, 3016725048, 3016725049, 3016725054, 3016725055, 1566758165, 3016725057, 3016725060, 3016725059, 1566758166, 3016725063, 3016725058, 3016790309, 1566758167, 1566758164], "tags": {"addr:city": "San Diego", "addr:country": "US", "addr:housenumber": "4249", "addr:postcode": "92173", "addr:street": "Camino de la Plaza", "amenity": "bank", "atm": "no", "brand": "U.S. Bank", "brand:wikidata": "Q739084", "building": "yes", "name": "U.S. Bank", "source": "SanGIS Addresses Public Domain (http://www.sangis.org/)"}}, {"type": "way", "id": 164777446, "nodes": [1763830060, 1763830061, 1763830062, 1763830063, 1763830060], "tags": {"amenity": "bank", "brand": "Wells Fargo", "brand:wikidata": "Q744149", "building": "yes", "name": "Wells Fargo", "source": "Bing"}}, {"type": "way", "id": 184235711, "nodes": [596946071, 1946833134, 1946833156, 1946833138, 10789478621, 1946833131, 1946833147, 5557727735, 1946833130, 1946833143, 596946071], "tags": {"addr:city": "La Mesa", "addr:country": "US", "addr:housenumber": "3787", "addr:postcode": "91941", "addr:street": "Avocado Boulevard", "amenity": "bank", "building": "yes", "source": "SanGIS Addresses Public Domain (http://www.sangis.org/)"}}, {"type": "way", "id": 225770838, "nodes": [2345251817, 2345251818, 2345251819, 2345251820, 2345251823, 2345251824, 2345251825, 2345251826, 2345251817], "tags": {"addr:city": "Santee", "addr:country": "US", "addr:housenumber": "9760", "addr:state": "CA", "addr:street": "Mission Gorge Road", "alt_name": "UnionBank", "amenity": "bank", "brand": "Union Bank", "brand:wikidata": "Q1442804", "building": "commercial", "name": "Union Bank"}}, {"type": "way", "id": 287000809, "nodes": [2906668783, 2906668785, 2906668780, 2906668778, 2906668773, 2906668775, 2906668774, 2906668776, 2906668777, 2906668779, 2906668781, 2906668782, 2906668784, 2906668783], "tags": {"addr:city": "Santee", "addr:country": "US", "addr:housenumber": "10", "addr:state": "CA", "addr:street": "Town Center Parkway", "amenity": "bank", "brand": "Chase", "brand:wikidata": "Q524629", "building": "yes", "check_date": "2024-09-17", "check_date:opening_hours": "2024-09-17", "drive_through": "yes", "name": "Chase", "opening_hours": "Mo-Fr 09:00-17:00; Sa 09:00-14:00; Su closed", "phone": "+1 619-562-1841", "website": "https://locator.chase.com/ca/santee/10-town-center-pkwy"}}, {"type": "way", "id": 287001270, "nodes": [2906672921, 2906672922, 2906672919, 2906672920, 2906672921], "tags": {"addr:city": "Santee", "addr:country": "US", "addr:housenumber": "9355", "addr:street": "Mission Gorge Road", "amenity": "bank", "brand": "U.S. Bank", "brand:wikidata": "Q739084", "building": "commercial", "building:levels": "1", "name": "U.S. Bank", "opening_hours": "Mo-Fr 09:00-05:00, Sa 09:00-01:00"}}, {"type": "way", "id": 297777749, "nodes": [3016769738, 3016767019, 3016767020, 3016767017, 3016767018, 3016767029, 3016767028, 3016769739, 3016784784, 3016769738], "tags": {"addr:city": "San Diego", "addr:country": "US", "addr:housenumber": "4319", "addr:postcode": "92173", "addr:street": "Camino de la Plaza", "amenity": "bank", "atm": "yes", "brand": "Bank of America", "brand:wikidata": "Q487907", "building": "yes", "name": "Bank of America", "source": "SanGIS Addresses Public Domain (http://www.sangis.org/)", "website": "https://locators.bankofamerica.com/ca/sanysidro/financial-centers-san-ysidro-15735.html"}}, {"type": "way", "id": 345816554, "nodes": [597080849, 3524713256, 3524713257, 3732433682, 3732433681, 3524713259, 3524713260, 597080849], "tags": {"addr:city": "El Cajon", "addr:country": "US", "addr:housenumber": "580", "addr:postcode": "92021", "addr:state": "CA", "addr:street": "North 2nd Street", "alt_name": "UnionBank", "amenity": "bank", "atm": "yes", "brand": "Union Bank", "brand:wikidata": "Q1442804", "building": "commercial", "drive_through": "yes", "layer": "1", "name": "Union Bank", "source": "SanGIS Addresses Public Domain (http://www.sangis.org/)"}}, {"type": "way", "id": 376986576, "nodes": [3803571965, 3803571963, 3803571962, 3803571964, 3803571965], "tags": {"addr:city": "El Cajon", "addr:housenumber": "866", "addr:postcode": "92020", "addr:state": "CA", "addr:street": "N Johnson Av", "amenity": "bank", "atm": "yes", "brand": "Chase", "brand:wikidata": "Q524629", "building": "commercial", "check_date": "2024-09-17", "check_date:opening_hours": "2024-09-17", "name": "Chase", "opening_hours": "Mo-Fr 09:00-17:00; Sa 09:00-14:00; Su closed", "phone": "+1 619-442-1617", "source": "SanGIS Addresses Public Domain (http://www.sangis.org/)", "website": "https://locator.chase.com/ca/el-cajon/866-n-johnson-ave"}}, {"type": "way", "id": 376986577, "nodes": [3803571978, 3803571968, 3803571969, 3803571979, 3803571978], "tags": {"addr:city": "El Cajon", "addr:country": "US", "addr:housenumber": "402", "addr:postcode": "92020", "addr:street": "Fletcher Parkway", "amenity": "bank", "brand": "Citibank", "brand:wikidata": "Q857063", "building": "yes", "name": "Citibank", "short_name": "Citi", "source": "SanGIS Addresses Public Domain (http://www.sangis.org/)"}}, {"type": "way", "id": 376986580, "nodes": [3803571981, 3803571980, 3803571971, 3803571972, 3803571973, 3803571974, 3803571981], "tags": {"addr:city": "El Cajon", "addr:country": "US", "addr:housenumber": "490", "addr:postcode": "92020", "addr:state": "CA", "addr:street": "Fletcher Parkway", "amenity": "bank", "brand": "U.S. Bank", "brand:wikidata": "Q739084", "building": "commercial", "name": "U.S. Bank", "source": "SanGIS Addresses Public Domain (http://www.sangis.org/)"}}, {"type": "way", "id": 395028450, "nodes": [3979139115, 3979139116, 3979139117, 3979139118, 3979139115], "tags": {"addr:city": "El Cajon", "addr:housenumber": "270", "addr:postcode": "92020", "addr:state": "CA", "addr:street": "Fletcher Parkway", "amenity": "bank", "atm": "yes", "brand": "Mission Federal Credit Union", "brand:wikidata": "Q18345955", "building": "yes", "name": "Mission Federal Credit Union", "source": "SanGIS Addresses Public Domain (http://www.sangis.org/)", "website": "https://www.missionfed.com/branches/el-cajon"}}, {"type": "way", "id": 406115082, "nodes": [4082250873, 4082250880, 4082250881, 4082250882, 4082250879, 4082250874, 4082250875, 4082250876, 4082250877, 6618538098, 4082250878, 4082250873], "tags": {"addr:city": "Chula Vista", "addr:country": "US", "addr:housenumber": "1735", "addr:postcode": "91915", "addr:street": "Eastlake Parkway", "amenity": "bank", "brand": "Bank of America", "brand:wikidata": "Q487907", "building": "commercial", "drive_through": "yes", "name": "Bank of America", "source": "SanGIS Addresses Public Domain (http://www.sangis.org/)", "website": "https://locators.bankofamerica.com/ca/chulavista/financial-centers-chula-vista-16480.html"}}, {"type": "way", "id": 406115085, "nodes": [4082250897, 4082250898, 4082250899, 4082250900, 4082250901, 4082250902, 4082250903, 4082250904, 4082250897], "tags": {"addr:city": "Chula Vista", "addr:housenumber": "2160", "addr:postcode": "91915", "addr:street": "Birch Road", "amenity": "bank", "brand": "Wells Fargo", "brand:wikidata": "Q744149", "building": "commercial", "name": "Wells Fargo"}}, {"type": "way", "id": 492856465, "nodes": [4848240477, 4848240478, 4848240479, 4848240480, 4848240481, 4848240482, 4848240483, 4848240484, 4848240485, 4848240486, 4848240487, 4848240488, 4848240489, 4848240490, 4848240477], "tags": {"addr:city": "Chula Vista", "addr:housenumber": "2280", "addr:postcode": "91915", "addr:street": "Otay Lakes Road", "amenity": "bank", "atm": "yes", "brand": "San Diego County Credit Union", "brand:wikidata": "Q7413628", "building": "yes", "name": "San Diego County Credit Union", "opening_hours": "Mo-Th 09:00-17:00; Fr 09:00-18:00; Sa 09:00-16:00", "short_name": "SDCCU", "source": "SanGIS Addresses Public Domain (http://www.sangis.org/)"}}, {"type": "way", "id": 545136514, "nodes": [5269001684, 5269001685, 5269001686, 10807133815, 5269001687, 5269001694, 5269001688, 10807133816, 5269001689, 5269001690, 5269001691, 5269001692, 5269001693, 5269001684], "tags": {"amenity": "bank", "brand": "Bank of America", "brand:wikidata": "Q487907", "building": "yes", "layer": "1", "name": "Bank of America", "website": "https://locators.bankofamerica.com/ca/sandiego/financial-centers-san-diego-7453.html"}}, {"type": "way", "id": 738895912, "nodes": [6918530152, 6918530153, 6918530154, 6918530155, 6918530156, 8732988525, 6918530152], "tags": {"amenity": "bank", "brand": "Chase", "brand:wikidata": "Q524629", "building": "yes", "check_date": "2024-09-17", "check_date:opening_hours": "2024-09-17", "name": "Chase", "opening_hours": "Mo-Fr 09:00-17:00; Sa 09:00-14:00; Su closed", "phone": "+1 619-427-7281", "website": "https://locator.chase.com/ca/chula-vista/501-h-st"}}, {"type": "way", "id": 759593611, "nodes": [7095596339, 7095596336, 7095596335, 7095596334, 7095596337, 7095596332, 7095596331, 7095596330, 7095596333, 7095596338, 7095596339], "tags": {"addr:city": "Chula Vista", "addr:country": "US", "addr:housenumber": "599", "addr:postcode": "91911", "addr:street": "Telegraph Canyon Road", "amenity": "bank", "building": "yes", "name": "Mission Federal Bank", "source:address": "SanGIS Addresses Public Domain (http://www.sangis.org/)"}}, {"type": "way", "id": 764504475, "nodes": [4679653588, 7142168723, 7142168724, 7142168725, 7142168726, 7142168727, 4679653588], "tags": {"amenity": "bank", "atm": "yes", "brand": "Chase", "brand:wikidata": "Q524629", "building": "yes", "check_date": "2024-09-17", "check_date:opening_hours": "2024-09-17", "name": "Chase", "opening_hours": "Mo-Fr 09:00-17:00; Sa 09:00-14:00; Su closed", "phone": "+1 619-475-7981", "website": "https://locator.chase.com/ca/bonita/4500-bonita-rd"}}, {"type": "way", "id": 823997501, "nodes": [6355766026, 7693311698, 7693311699, 7693311700, 7693311701, 6355766026], "tags": {"amenity": "bank", "atm": "yes", "brand": "Chase", "brand:wikidata": "Q524629", "building": "yes", "name": "Chase"}}, {"type": "way", "id": 921944060, "nodes": [8559212228, 8559212224, 9406108870, 9406108869, 8559212223, 8559212226, 8559212220, 8559212219, 9406108874, 9406108873, 8559212221, 8559212222, 9406108872, 9406108871, 8559212225, 8559212228], "tags": {"addr:city": "El Cajon", "addr:country": "US", "addr:housenumber": "1235", "addr:postcode": "92020", "addr:state": "CA", "addr:street": "Avocado Avenue", "amenity": "bank", "atm": "yes", "brand": "Wells Fargo", "brand:wikidata": "Q744149", "building": "yes", "drive_through": "yes", "name": "Wells Fargo", "source": "SanGIS Addresses Public Domain (http://www.sangis.org/)"}}, {"type": "way", "id": 921944062, "nodes": [8559212242, 8559212241, 8559212238, 8559212237, 8559212240, 8559212239, 8559212242], "tags": {"addr:city": "El Cajon", "addr:country": "US", "addr:housenumber": "1133", "addr:postcode": "92020", "addr:state": "CA", "addr:street": "Avocado Avenue", "amenity": "bank", "atm": "yes", "brand": "Chase", "brand:wikidata": "Q524629", "building": "retail", "check_date": "2024-09-17", "check_date:opening_hours": "2024-09-17", "drive_through": "yes", "name": "Chase", "opening_hours": "Mo-Fr 09:00-17:00; Sa 09:00-14:00; Su closed", "phone": "+1 619-447-0559", "source": "SanGIS Addresses Public Domain (http://www.sangis.org/)", "website": "https://locator.chase.com/ca/el-cajon/1133-avocado-blvd"}}, {"type": "way", "id": 934163143, "nodes": [8657989659, 8657989660, 12016578866, 8657989661, 8657989662, 8657989659], "tags": {"addr:city": "Santee", "addr:country": "US", "addr:housenumber": "9660", "addr:postcode": "92071", "addr:state": "CA", "addr:street": "Mission Gorge Road", "amenity": "bank", "atm": "yes", "brand": "Navy Federal Credit Union", "brand:wikidata": "Q6982632", "building": "yes", "name": "Navy Federal Credit Union", "source": "SanGIS Addresses Public Domain (http://www.sangis.org/)"}}, {"type": "way", "id": 934163146, "nodes": [8657989671, 8657989672, 8657989673, 8657989674, 8657989675, 8657989676, 8657989677, 12237370405, 8657989678, 8657989679, 12237370406, 8657989680, 8657989671], "tags": {"amenity": "bank", "brand": "Bank of America", "brand:wikidata": "Q487907", "building": "yes", "name": "Bank of America", "website": "https://locators.bankofamerica.com/ca/santee/financial-centers-santee-9454.html"}}, {"type": "way", "id": 934163147, "nodes": [8657989681, 8657989682, 8657989683, 8657989684, 8657989681], "tags": {"amenity": "bank", "brand": "Wells Fargo", "brand:wikidata": "Q744149", "building": "yes", "name": "Wells Fargo"}}, {"type": "way", "id": 957931493, "nodes": [8863635974, 8863635975, 8863635976, 8863635977, 8863635978, 8863635979, 8863635980, 8863635981, 8863635982, 8863635983, 8863635984, 8863635985, 8863635986, 8863635987, 8863635988, 8863635989, 8863635974], "tags": {"addr:city": "El Cajon", "addr:housenumber": "250", "addr:postcode": "92021", "addr:state": "CA", "addr:street": "North 2nd Street", "amenity": "bank", "atm": "yes", "brand": "Wells Fargo", "brand:wikidata": "Q744149", "building": "yes", "drive_through": "yes", "level": "1", "name": "Wells Fargo", "phone": "+16194421693", "website": "https://www.wellsfargo.com/locator/bank/250__N__2ND__ST_EL__CAJON_CA_92021/"}}, {"type": "way", "id": 959914462, "nodes": [8881430612, 8881430613, 8881430614, 8881430615, 8881430612], "tags": {"addr:city": "La Mesa", "addr:housenumber": "3815", "addr:postcode": "91941", "addr:state": "CA", "addr:street": "Avocado Boulevard", "amenity": "bank", "atm": "yes", "brand": "Mission Federal Credit Union", "brand:wikidata": "Q18345955", "building": "yes", "drive_through": "no", "name": "Mission Federal Credit Union", "phone": "+18005006328", "website": "https://www.missionfed.com/branches/rancho-san-diego"}}, {"type": "way", "id": 961427349, "nodes": [8893457621, 8893457622, 8893457623, 8893457624, 8893457621], "tags": {"addr:city": "El Cajon", "addr:country": "US", "addr:housenumber": "1790", "addr:postcode": "92021", "addr:state": "CA", "addr:street": "East Main Street", "amenity": "bank", "brand": "Chase", "brand:wikidata": "Q524629", "building": "yes", "check_date": "2024-09-17", "check_date:opening_hours": "2024-09-17", "drive_through": "yes", "name": "Chase", "opening_hours": "Mo-Fr 09:00-17:00; Sa 09:00-14:00; Su closed", "phone": "+1 619-579-3771", "source": "SanGIS Addresses Public Domain (http://www.sangis.org/)", "website": "https://locator.chase.com/ca/el-cajon/1790-e-main-st"}}, {"type": "way", "id": 962140079, "nodes": [8899904469, 8899904470, 8899904471, 8899904472, 8899904473, 10826154086, 8899904474, 8899904475, 10826154085, 8899904476, 8899904477, 8899904478, 8899904469], "tags": {"addr:city": "Spring Valley", "addr:country": "US", "addr:housenumber": "9846", "addr:postcode": "91977", "addr:state": "CA", "addr:street": "Campo Road", "alt_name": "UnionBank", "amenity": "bank", "atm": "yes", "brand": "Union Bank", "brand:wikidata": "Q1442804", "building": "yes", "drive_through": "yes", "name": "Union Bank", "phone": "+16194619660", "source": "SanGIS Addresses Public Domain (http://www.sangis.org/)", "website": "https://www.unionbank.com/locations/california/spring-valley/9846-campo-road-91977"}}, {"type": "way", "id": 993510024, "nodes": [9178842781, 9178842782, 9178842783, 9178842784, 9178842785, 9178842786, 9178842787, 9178842788, 9178842789, 9178842790, 9178842791, 9178842792, 9178842781], "tags": {"addr:city": "Spring Valley", "addr:country": "US", "addr:housenumber": "9832", "addr:postcode": "91977", "addr:state": "CA", "addr:street": "Campo Road", "amenity": "bank", "atm": "yes", "brand": "Bank of the West", "brand:wikidata": "Q2881919", "building": "yes", "drive_through": "yes", "name": "Bank of the West", "source": "SanGIS Addresses Public Domain (http://www.sangis.org/)"}}, {"type": "way", "id": 993796371, "nodes": [9181615375, 9181615376, 9181615377, 9181615378, 9181615379, 9181615380, 9181615381, 9181615382, 9181615383, 9181615384, 9181615385, 9181615386, 9181615387, 9181615388, 9181615375], "tags": {"addr:city": "El Cajon", "addr:country": "US", "addr:housenumber": "1234", "addr:postcode": "92019", "addr:state": "CA", "addr:street": "East Main Street", "amenity": "bank", "brand": "Bank of the West", "brand:wikidata": "Q2881919", "building": "yes", "name": "Bank of the West", "source": "SanGIS Addresses Public Domain (http://www.sangis.org/)"}}, {"type": "way", "id": 994404262, "nodes": [9185141902, 9185141903, 9185141904, 9185141905, 9185141906, 9185141907, 9185141908, 9185141909, 9185141910, 9185141911, 9185141912, 9185141913, 9185141914, 9185141915, 9185141902], "tags": {"addr:city": "El Cajon", "addr:country": "US", "addr:housenumber": "512", "addr:postcode": "92020", "addr:state": "CA", "addr:street": "Fletcher Parkway", "amenity": "bank", "brand": "Bank of America", "brand:wikidata": "Q487907", "building": "yes", "name": "Bank of America", "source": "SanGIS Addresses Public Domain (http://www.sangis.org/)", "website": "https://locators.bankofamerica.com/ca/elcajon/financial-centers-el-cajon-9000.html"}}, {"type": "way", "id": 994404265, "nodes": [9185141933, 9185141934, 9185141935, 9185141936, 9185141937, 9185141938, 9185141939, 9185141940, 9185141933], "tags": {"addr:city": "El Cajon", "addr:housenumber": "570", "addr:postcode": "92021", "addr:state": "CA", "addr:street": "Broadway", "amenity": "bank", "building": "yes", "name": "Inland Federal Credit Union", "phone": "+16194445656", "website": "https://www.inlandfederal.org/"}}, {"type": "way", "id": 995061669, "nodes": [9188672925, 9188672926, 9188672927, 9188672928, 9188672929, 9188672930, 9188672931, 9188672932, 9188672924, 9188672925], "tags": {"addr:city": "El Cajon", "addr:country": "US", "addr:housenumber": "845", "addr:postcode": "92021", "addr:state": "CA", "addr:street": "North 2nd Street", "amenity": "bank", "atm": "yes", "brand": "Bank of America", "brand:wikidata": "Q487907", "building": "yes", "drive_through": "yes", "name": "Bank of America", "source": "SanGIS Addresses Public Domain (http://www.sangis.org/)", "website": "https://locators.bankofamerica.com/ca/elcajon/financial-centers-el-cajon-11512.html"}}, {"type": "way", "id": 1001585643, "nodes": [9244742196, 9244742197, 9244742198, 9244742199, 9244742200, 9244742201, 9244742202, 9244742203, 9244742204, 9244742205, 9244742206, 9244742207, 9244742196], "tags": {"addr:city": "Santee", "addr:country": "US", "addr:housenumber": "245", "addr:postcode": "92071", "addr:state": "CA", "addr:street": "Town Center Parkway", "amenity": "bank", "brand": "Mission Federal Credit Union", "brand:wikidata": "Q18345955", "building": "yes", "name": "Mission Federal Credit Union", "source": "SanGIS Addresses Public Domain (http://www.sangis.org/)", "website": "https://www.missionfed.com/branches/santee"}}, {"type": "way", "id": 1012852581, "nodes": [9344502432, 9344502433, 9344502434, 9344502435, 9344502436, 9344502437, 9344502438, 9344502439, 10789452188, 9344502440, 9344502441, 10789452189, 9344502442, 9344502443, 9344502432], "tags": {"addr:city": "La Mesa", "addr:housenumber": "8796", "addr:postcode": "91942", "addr:state": "CA", "addr:street": "Grossmont Boulevard", "amenity": "bank", "atm": "yes", "brand": "Navy Federal Credit Union", "brand:wikidata": "Q6982632", "building": "yes", "drive_through": "yes", "name": "Navy Federal Credit Union", "opening_hours": "Mo-Fr 09:00-18:00; Sa 09:00-14:00", "website": "https://www.navyfederal.org/branches-atms/locations/usa/ca/la-mesa/lms.html"}}, {"type": "way", "id": 1015139515, "nodes": [596536845, 9364521688, 9364521689, 9364521690, 9364521691, 9364521692, 9364521693, 9364521694, 9364521695, 10827038544, 9364521696, 9364521697, 10827038543, 9364521698, 596536845], "tags": {"addr:city": "La Mesa", "addr:housenumber": "8379", "addr:postcode": "91942", "addr:state": "CA", "addr:street": "Center Drive", "amenity": "bank", "atm": "yes", "building": "yes", "drive_through": "yes", "name": "Torrey Pines Bank", "source": "SanGIS Addresses Public Domain (http://www.sangis.org/)"}}, {"type": "way", "id": 1103950017, "nodes": [10102116268, 10102116269, 10102116270, 10102116271, 10102116272, 10102116273, 10102116274, 10102116275, 10102116276, 10102116277, 10102116268], "tags": {"amenity": "bank", "building": "yes", "layer": "1", "name": "North Island Credit Union"}}]}